{"type" : "FeatureCollection", "features" : [{"type" : "Feature", "properties" : {"id" : 1, "name" : "Pennsylvania State House / Independence Hall"}, "geometry" : {"type":"MultiPolygon","crs":{"type":"name","properties":{"name":"EPSG:3857"}},"coordinates":[[[[-8365640.531,4858523.932],[-8365626.849,4858521.841],[-8365626.471,4858524.019],[-8365607.391,4858520.737],[-8365609.428,4858508.902],[-8365612.155,4858509.454],[-8365628.508,4858512.199],[-8365627.773,4858516.453],[-8365641.41,4858518.53],[-8365642.367,4858512.721],[-8365643.325,4858506.913],[-8365657.729,4858509.28],[-8365659.588,4858498.767],[-8365666.312,4858499.769],[-8365673.347,4858500.814],[-8365671.644,4858511.473],[-8365684.312,4858513.549],[-8365683.322,4858519.575],[-8365682.431,4858525.006],[-8365695.801,4858527.271],[-8365696.702,4858522.145],[-8365716.417,4858525.529],[-8365714.269,4858538.089],[-8365694.52,4858534.706],[-8365694.988,4858532.063],[-8365681.641,4858529.813],[-8365681.196,4858532.513],[-8365640.23,4858525.776],[-8365640.531,4858523.932]]]]}}, {"type" : "Feature", "properties" : {"id" : 2, "name" : "Christ Church"}, "geometry" : {"type":"MultiPolygon","crs":{"type":"name","properties":{"name":"EPSG:3857"}},"coordinates":[[[[-8365001.479,4858797.291],[-8365004.05,4858782.915],[-8364991.159,4858780.606],[-8364992.184,4858774.884],[-8364958.32,4858768.815],[-8364957.296,4858774.536],[-8364955.337,4858774.187],[-8364952.977,4858787.3],[-8364954.858,4858787.634],[-8364953.778,4858793.951],[-8364987.786,4858800.05],[-8364988.699,4858794.996],[-8365001.479,4858797.291]]]]}}, {"type" : "Feature", "properties" : {"id" : 13, "name" : "High Street Market shambles"}, "geometry" : {"type":"MultiPolygon","crs":{"type":"name","properties":{"name":"EPSG:3857"}},"coordinates":[[[[-8365167.5,4858692],[-8365005.5,4858671.5],[-8365006.9,4858680.5],[-8365145.2,4858702],[-8365143.9,4858710.5],[-8365164.5,4858714],[-8365167.5,4858692]]]]}}, {"type" : "Feature", "properties" : {"id" : 19, "name" : "Old Gaol and Work House (Old Stone Prison)"}, "geometry" : {"type":"MultiPolygon","crs":{"type":"name","properties":{"name":"EPSG:3857"}},"coordinates":[[[[-8365212.1,4858687.2],[-8365194.5,4858684.8],[-8365196.5,4858664.6],[-8365214.2,4858667.3],[-8365212.1,4858687.2]]],[[[-8365218.9,4858639.2],[-8365199.2,4858636.5],[-8365201.9,4858611.9],[-8365221.6,4858614.6],[-8365218.9,4858639.2]]]]}}]}
