{
"type": "FeatureCollection",
"name": "chip_grid",
"crs": { "type": "name", "properties": { "name": "urn:ogc:def:crs:EPSG::3857" } },
"features": [
{ "type": "Feature", "properties": { "chip_id": "chip_000000" }, "geometry": { "type": "Polygon", "coordinates": [ [ [ -8366031.368199405260384, 4859821.980199404992163 ], [ -8366031.368199405260384, 4860200.233 ], [ -8366409.621000000275671, 4860200.233 ], [ -8366409.621000000275671, 4859821.980199404992163 ], [ -8366031.368199405260384, 4859821.980199404992163 ] ] ] } },
{ "type": "Feature", "properties": { "chip_id": "chip_000001" }, "geometry": { "type": "Polygon", "coordinates": [ [ [ -8365842.24179910775274, 4859821.980199404992163 ], [ -8365842.24179910775274, 4860200.233 ], [ -8366220.494599702768028, 4860200.233 ], [ -8366220.494599702768028, 4859821.980199404992163 ], [ -8365842.24179910775274, 4859821.980199404992163 ] ] ] } },
{ "type": "Feature", "properties": { "chip_id": "chip_000002" }, "geometry": { "type": "Polygon", "coordinates": [ [ [ -8365653.115398810245097, 4859821.980199404992163 ], [ -8365653.115398810245097, 4860200.233 ], [ -8366031.368199405260384, 4860200.233 ], [ -8366031.368199405260384, 4859821.980199404992163 ], [ -8365653.115398810245097, 4859821.980199404992163 ] ] ] } },
{ "type": "Feature", "properties": { "chip_id": "chip_000003" }, "geometry": { "type": "Polygon", "coordinates": [ [ [ -8365463.988998512737453, 4859821.980199404992163 ], [ -8365463.988998512737453, 4860200.233 ], [ -8365842.24179910775274, 4860200.233 ], [ -8365842.24179910775274, 4859821.980199404992163 ], [ -8365463.988998512737453, 4859821.980199404992163 ] ] ] } },
{ "type": "Feature", "properties": { "chip_id": "chip_000004" }, "geometry": { "type": "Polygon", "coordinates": [ [ [ -8365274.862598215229809, 4859821.980199404992163 ], [ -8365274.862598215229809, 4860200.233 ], [ -8365653.115398810245097, 4860200.233 ], [ -8365653.115398810245097, 4859821.980199404992163 ], [ -8365274.862598215229809, 4859821.980199404992163 ] ] ] } },
{ "type": "Feature", "properties": { "chip_id": "chip_000005" }, "geometry": { "type": "Polygon", "coordinates": [ [ [ -8365085.736197918653488, 4859821.980199404992163 ], [ -8365085.736197918653488, 4860200.233 ], [ -8365463.988998513668776, 4860200.233 ], [ -8365463.988998513668776, 4859821.980199404992163 ], [ -8365085.736197918653488, 4859821.980199404992163 ] ] ] } },
{ "type": "Feature", "properties": { "chip_id": "chip_000006" }, "geometry": { "type": "Polygon", "coordinates": [ [ [ -8364896.609797621145844, 4859821.980199404992163 ], [ -8364896.609797621145844, 4860200.233 ], [ -8365274.862598216161132, 4860200.233 ], [ -8365274.862598216161132, 4859821.980199404992163 ], [ -8364896.609797621145844, 4859821.980199404992163 ] ] ] } },
{ "type": "Feature", "properties": { "chip_id": "chip_000007" }, "geometry": { "type": "Polygon", "coordinates": [ [ [ -8364707.483397323638201, 4859821.980199404992163 ], [ -8364707.483397323638201, 4860200.233 ], [ -8365085.736197918653488, 4860200.233 ], [ -8365085.736197918653488, 4859821.980199404992163 ], [ -8364707.483397323638201, 4859821.980199404992163 ] ] ] } },
{ "type": "Feature", "properties": { "chip_id": "chip_000008" }, "geometry": { "type": "Polygon", "coordinates": [ [ [ -8364518.356997026130557, 4859821.980199404992163 ], [ -8364518.356997026130557, 4860200.233 ], [ -8364896.609797621145844, 4860200.233 ], [ -8364896.609797621145844, 4859821.980199404992163 ], [ -8364518.356997026130557, 4859821.980199404992163 ] ] ] } },
{ "type": "Feature", "properties": { "chip_id": "chip_000009" }, "geometry": { "type": "Polygon", "coordinates": [ [ [ -8364329.230596728622913, 4859821.980199404992163 ], [ -8364329.230596728622913, 4860200.233 ], [ -8364707.483397323638201, 4860200.233 ], [ -8364707.483397323638201, 4859821.980199404992163 ], [ -8364329.230596728622913, 4859821.980199404992163 ] ] ] } },
{ "type": "Feature", "properties": { "chip_id": "chip_000010" }, "geometry": { "type": "Polygon", "coordinates": [ [ [ -8364140.10419643111527, 4859821.980199404992163 ], [ -8364140.10419643111527, 4860200.233 ], [ -8364518.356997026130557, 4860200.233 ], [ -8364518.356997026130557, 4859821.980199404992163 ], [ -8364140.10419643111527, 4859821.980199404992163 ] ] ] } },
{ "type": "Feature", "properties": { "chip_id": "chip_000011" }, "geometry": { "type": "Polygon", "coordinates": [ [ [ -8366031.368199405260384, 4859632.853799107484519 ], [ -8366031.368199405260384, 4860011.106599702499807 ], [ -8366409.621000000275671, 4860011.106599702499807 ], [ -8366409.621000000275671, 4859632.853799107484519 ], [ -8366031.368199405260384, 4859632.853799107484519 ] ] ] } },
{ "type": "Feature", "properties": { "chip_id": "chip_000012" }, "geometry": { "type": "Polygon", "coordinates": [ [ [ -8365842.24179910775274, 4859632.853799107484519 ], [ -8365842.24179910775274, 4860011.106599702499807 ], [ -8366220.494599702768028, 4860011.106599702499807 ], [ -8366220.494599702768028, 4859632.853799107484519 ], [ -8365842.24179910775274, 4859632.853799107484519 ] ] ] } },
{ "type": "Feature", "properties": { "chip_id": "chip_000013" }, "geometry": { "type": "Polygon", "coordinates": [ [ [ -8365653.115398810245097, 4859632.853799107484519 ], [ -8365653.115398810245097, 4860011.106599702499807 ], [ -8366031.368199405260384, 4860011.106599702499807 ], [ -8366031.368199405260384, 4859632.853799107484519 ], [ -8365653.115398810245097, 4859632.853799107484519 ] ] ] } },
{ "type": "Feature", "properties": { "chip_id": "chip_000014" }, "geometry": { "type": "Polygon", "coordinates": [ [ [ -8365463.988998512737453, 4859632.853799107484519 ], [ -8365463.988998512737453, 4860011.106599702499807 ], [ -8365842.24179910775274, 4860011.106599702499807 ], [ -8365842.24179910775274, 4859632.853799107484519 ], [ -8365463.988998512737453, 4859632.853799107484519 ] ] ] } },
{ "type": "Feature", "properties": { "chip_id": "chip_000015" }, "geometry": { "type": "Polygon", "coordinates": [ [ [ -8365274.862598215229809, 4859632.853799107484519 ], [ -8365274.862598215229809, 4860011.106599702499807 ], [ -8365653.115398810245097, 4860011.106599702499807 ], [ -8365653.115398810245097, 4859632.853799107484519 ], [ -8365274.862598215229809, 4859632.853799107484519 ] ] ] } },
{ "type": "Feature", "properties": { "chip_id": "chip_000016" }, "geometry": { "type": "Polygon", "coordinates": [ [ [ -8365085.736197918653488, 4859632.853799107484519 ], [ -8365085.736197918653488, 4860011.106599702499807 ], [ -8365463.988998513668776, 4860011.106599702499807 ], [ -8365463.988998513668776, 4859632.853799107484519 ], [ -8365085.736197918653488, 4859632.853799107484519 ] ] ] } },
{ "type": "Feature", "properties": { "chip_id": "chip_000017" }, "geometry": { "type": "Polygon", "coordinates": [ [ [ -8364896.609797621145844, 4859632.853799107484519 ], [ -8364896.609797621145844, 4860011.106599702499807 ], [ -8365274.862598216161132, 4860011.106599702499807 ], [ -8365274.862598216161132, 4859632.853799107484519 ], [ -8364896.609797621145844, 4859632.853799107484519 ] ] ] } },
{ "type": "Feature", "properties": { "chip_id": "chip_000018" }, "geometry": { "type": "Polygon", "coordinates": [ [ [ -8364707.483397323638201, 4859632.853799107484519 ], [ -8364707.483397323638201, 4860011.106599702499807 ], [ -8365085.736197918653488, 4860011.106599702499807 ], [ -8365085.736197918653488, 4859632.853799107484519 ], [ -8364707.483397323638201, 4859632.853799107484519 ] ] ] } },
{ "type": "Feature", "properties": { "chip_id": "chip_000019" }, "geometry": { "type": "Polygon", "coordinates": [ [ [ -8364518.356997026130557, 4859632.853799107484519 ], [ -8364518.356997026130557, 4860011.106599702499807 ], [ -8364896.609797621145844, 4860011.106599702499807 ], [ -8364896.609797621145844, 4859632.853799107484519 ], [ -8364518.356997026130557, 4859632.853799107484519 ] ] ] } },
{ "type": "Feature", "properties": { "chip_id": "chip_000020" }, "geometry": { "type": "Polygon", "coordinates": [ [ [ -8364329.230596728622913, 4859632.853799107484519 ], [ -8364329.230596728622913, 4860011.106599702499807 ], [ -8364707.483397323638201, 4860011.106599702499807 ], [ -8364707.483397323638201, 4859632.853799107484519 ], [ -8364329.230596728622913, 4859632.853799107484519 ] ] ] } },
{ "type": "Feature", "properties": { "chip_id": "chip_000021" }, "geometry": { "type": "Polygon", "coordinates": [ [ [ -8364140.10419643111527, 4859632.853799107484519 ], [ -8364140.10419643111527, 4860011.106599702499807 ], [ -8364518.356997026130557, 4860011.106599702499807 ], [ -8364518.356997026130557, 4859632.853799107484519 ], [ -8364140.10419643111527, 4859632.853799107484519 ] ] ] } },
{ "type": "Feature", "properties": { "chip_id": "chip_000022" }, "geometry": { "type": "Polygon", "coordinates": [ [ [ -8366031.368199405260384, 4859443.727398809976876 ], [ -8366031.368199405260384, 4859821.980199404992163 ], [ -8366409.621000000275671, 4859821.980199404992163 ], [ -8366409.621000000275671, 4859443.727398809976876 ], [ -8366031.368199405260384, 4859443.727398809976876 ] ] ] } },
{ "type": "Feature", "properties": { "chip_id": "chip_000023" }, "geometry": { "type": "Polygon", "coordinates": [ [ [ -8365842.24179910775274, 4859443.727398809976876 ], [ -8365842.24179910775274, 4859821.980199404992163 ], [ -8366220.494599702768028, 4859821.980199404992163 ], [ -8366220.494599702768028, 4859443.727398809976876 ], [ -8365842.24179910775274, 4859443.727398809976876 ] ] ] } },
{ "type": "Feature", "properties": { "chip_id": "chip_000024" }, "geometry": { "type": "Polygon", "coordinates": [ [ [ -8365653.115398810245097, 4859443.727398809976876 ], [ -8365653.115398810245097, 4859821.980199404992163 ], [ -8366031.368199405260384, 4859821.980199404992163 ], [ -8366031.368199405260384, 4859443.727398809976876 ], [ -8365653.115398810245097, 4859443.727398809976876 ] ] ] } },
{ "type": "Feature", "properties": { "chip_id": "chip_000025" }, "geometry": { "type": "Polygon", "coordinates": [ [ [ -8365463.988998512737453, 4859443.727398809976876 ], [ -8365463.988998512737453, 4859821.980199404992163 ], [ -8365842.24179910775274, 4859821.980199404992163 ], [ -8365842.24179910775274, 4859443.727398809976876 ], [ -8365463.988998512737453, 4859443.727398809976876 ] ] ] } },
{ "type": "Feature", "properties": { "chip_id": "chip_000026" }, "geometry": { "type": "Polygon", "coordinates": [ [ [ -8365274.862598215229809, 4859443.727398809976876 ], [ -8365274.862598215229809, 4859821.980199404992163 ], [ -8365653.115398810245097, 4859821.980199404992163 ], [ -8365653.115398810245097, 4859443.727398809976876 ], [ -8365274.862598215229809, 4859443.727398809976876 ] ] ] } },
{ "type": "Feature", "properties": { "chip_id": "chip_000027" }, "geometry": { "type": "Polygon", "coordinates": [ [ [ -8365085.736197918653488, 4859443.727398809976876 ], [ -8365085.736197918653488, 4859821.980199404992163 ], [ -8365463.988998513668776, 4859821.980199404992163 ], [ -8365463.988998513668776, 4859443.727398809976876 ], [ -8365085.736197918653488, 4859443.727398809976876 ] ] ] } },
{ "type": "Feature", "properties": { "chip_id": "chip_000028" }, "geometry": { "type": "Polygon", "coordinates": [ [ [ -8364896.609797621145844, 4859443.727398809976876 ], [ -8364896.609797621145844, 4859821.980199404992163 ], [ -8365274.862598216161132, 4859821.980199404992163 ], [ -8365274.862598216161132, 4859443.727398809976876 ], [ -8364896.609797621145844, 4859443.727398809976876 ] ] ] } },
{ "type": "Feature", "properties": { "chip_id": "chip_000029" }, "geometry": { "type": "Polygon", "coordinates": [ [ [ -8364707.483397323638201, 4859443.727398809976876 ], [ -8364707.483397323638201, 4859821.980199404992163 ], [ -8365085.736197918653488, 4859821.980199404992163 ], [ -8365085.736197918653488, 4859443.727398809976876 ], [ -8364707.483397323638201, 4859443.727398809976876 ] ] ] } },
{ "type": "Feature", "properties": { "chip_id": "chip_000030" }, "geometry": { "type": "Polygon", "coordinates": [ [ [ -8364518.356997026130557, 4859443.727398809976876 ], [ -8364518.356997026130557, 4859821.980199404992163 ], [ -8364896.609797621145844, 4859821.980199404992163 ], [ -8364896.609797621145844, 4859443.727398809976876 ], [ -8364518.356997026130557, 4859443.727398809976876 ] ] ] } },
{ "type": "Feature", "properties": { "chip_id": "chip_000031" }, "geometry": { "type": "Polygon", "coordinates": [ [ [ -8364329.230596728622913, 4859443.727398809976876 ], [ -8364329.230596728622913, 4859821.980199404992163 ], [ -8364707.483397323638201, 4859821.980199404992163 ], [ -8364707.483397323638201, 4859443.727398809976876 ], [ -8364329.230596728622913, 4859443.727398809976876 ] ] ] } },
{ "type": "Feature", "properties": { "chip_id": "chip_000032" }, "geometry": { "type": "Polygon", "coordinates": [ [ [ -8364140.10419643111527, 4859443.727398809976876 ], [ -8364140.10419643111527, 4859821.980199404992163 ], [ -8364518.356997026130557, 4859821.980199404992163 ], [ -8364518.356997026130557, 4859443.727398809976876 ], [ -8364140.10419643111527, 4859443.727398809976876 ] ] ] } },
{ "type": "Feature", "properties": { "chip_id": "chip_000033" }, "geometry": { "type": "Polygon", "coordinates": [ [ [ -8366031.368199405260384, 4859254.600998512469232 ], [ -8366031.368199405260384, 4859632.853799107484519 ], [ -8366409.621000000275671, 4859632.853799107484519 ], [ -8366409.621000000275671, 4859254.600998512469232 ], [ -8366031.368199405260384, 4859254.600998512469232 ] ] ] } },
{ "type": "Feature", "properties": { "chip_id": "chip_000034" }, "geometry": { "type": "Polygon", "coordinates": [ [ [ -8365842.24179910775274, 4859254.600998512469232 ], [ -8365842.24179910775274, 4859632.853799107484519 ], [ -8366220.494599702768028, 4859632.853799107484519 ], [ -8366220.494599702768028, 4859254.600998512469232 ], [ -8365842.24179910775274, 4859254.600998512469232 ] ] ] } },
{ "type": "Feature", "properties": { "chip_id": "chip_000035" }, "geometry": { "type": "Polygon", "coordinates": [ [ [ -8365653.115398810245097, 4859254.600998512469232 ], [ -8365653.115398810245097, 4859632.853799107484519 ], [ -8366031.368199405260384, 4859632.853799107484519 ], [ -8366031.368199405260384, 4859254.600998512469232 ], [ -8365653.115398810245097, 4859254.600998512469232 ] ] ] } },
{ "type": "Feature", "properties": { "chip_id": "chip_000036" }, "geometry": { "type": "Polygon", "coordinates": [ [ [ -8365463.988998512737453, 4859254.600998512469232 ], [ -8365463.988998512737453, 4859632.853799107484519 ], [ -8365842.24179910775274, 4859632.853799107484519 ], [ -8365842.24179910775274, 4859254.600998512469232 ], [ -8365463.988998512737453, 4859254.600998512469232 ] ] ] } },
{ "type": "Feature", "properties": { "chip_id": "chip_000037" }, "geometry": { "type": "Polygon", "coordinates": [ [ [ -8365274.862598215229809, 4859254.600998512469232 ], [ -8365274.862598215229809, 4859632.853799107484519 ], [ -8365653.115398810245097, 4859632.853799107484519 ], [ -8365653.115398810245097, 4859254.600998512469232 ], [ -8365274.862598215229809, 4859254.600998512469232 ] ] ] } },
{ "type": "Feature", "properties": { "chip_id": "chip_000038" }, "geometry": { "type": "Polygon", "coordinates": [ [ [ -8365085.736197918653488, 4859254.600998512469232 ], [ -8365085.736197918653488, 4859632.853799107484519 ], [ -8365463.988998513668776, 4859632.853799107484519 ], [ -8365463.988998513668776, 4859254.600998512469232 ], [ -8365085.736197918653488, 4859254.600998512469232 ] ] ] } },
{ "type": "Feature", "properties": { "chip_id": "chip_000039" }, "geometry": { "type": "Polygon", "coordinates": [ [ [ -8364896.609797621145844, 4859254.600998512469232 ], [ -8364896.609797621145844, 4859632.853799107484519 ], [ -8365274.862598216161132, 4859632.853799107484519 ], [ -8365274.862598216161132, 4859254.600998512469232 ], [ -8364896.609797621145844, 4859254.600998512469232 ] ] ] } },
{ "type": "Feature", "properties": { "chip_id": "chip_000040" }, "geometry": { "type": "Polygon", "coordinates": [ [ [ -8364707.483397323638201, 4859254.600998512469232 ], [ -8364707.483397323638201, 4859632.853799107484519 ], [ -8365085.736197918653488, 4859632.853799107484519 ], [ -8365085.736197918653488, 4859254.600998512469232 ], [ -8364707.483397323638201, 4859254.600998512469232 ] ] ] } },
{ "type": "Feature", "properties": { "chip_id": "chip_000041" }, "geometry": { "type": "Polygon", "coordinates": [ [ [ -8364518.356997026130557, 4859254.600998512469232 ], [ -8364518.356997026130557, 4859632.853799107484519 ], [ -8364896.609797621145844, 4859632.853799107484519 ], [ -8364896.609797621145844, 4859254.600998512469232 ], [ -8364518.356997026130557, 4859254.600998512469232 ] ] ] } },
{ "type": "Feature", "properties": { "chip_id": "chip_000042" }, "geometry": { "type": "Polygon", "coordinates": [ [ [ -8364329.230596728622913, 4859254.600998512469232 ], [ -8364329.230596728622913, 4859632.853799107484519 ], [ -8364707.483397323638201, 4859632.853799107484519 ], [ -8364707.483397323638201, 4859254.600998512469232 ], [ -8364329.230596728622913, 4859254.600998512469232 ] ] ] } },
{ "type": "Feature", "properties": { "chip_id": "chip_000043" }, "geometry": { "type": "Polygon", "coordinates": [ [ [ -8364140.10419643111527, 4859254.600998512469232 ], [ -8364140.10419643111527, 4859632.853799107484519 ], [ -8364518.356997026130557, 4859632.853799107484519 ], [ -8364518.356997026130557, 4859254.600998512469232 ], [ -8364140.10419643111527, 4859254.600998512469232 ] ] ] } },
{ "type": "Feature", "properties": { "chip_id": "chip_000044" }, "geometry": { "type": "Polygon", "coordinates": [ [ [ -8366031.368199405260384, 4859065.474598214961588 ], [ -8366031.368199405260384, 4859443.727398809976876 ], [ -8366409.621000000275671, 4859443.727398809976876 ], [ -8366409.621000000275671, 4859065.474598214961588 ], [ -8366031.368199405260384, 4859065.474598214961588 ] ] ] } },
{ "type": "Feature", "properties": { "chip_id": "chip_000045" }, "geometry": { "type": "Polygon", "coordinates": [ [ [ -8365842.24179910775274, 4859065.474598214961588 ], [ -8365842.24179910775274, 4859443.727398809976876 ], [ -8366220.494599702768028, 4859443.727398809976876 ], [ -8366220.494599702768028, 4859065.474598214961588 ], [ -8365842.24179910775274, 4859065.474598214961588 ] ] ] } },
{ "type": "Feature", "properties": { "chip_id": "chip_000046" }, "geometry": { "type": "Polygon", "coordinates": [ [ [ -8365653.115398810245097, 4859065.474598214961588 ], [ -8365653.115398810245097, 4859443.727398809976876 ], [ -8366031.368199405260384, 4859443.727398809976876 ], [ -8366031.368199405260384, 4859065.474598214961588 ], [ -8365653.115398810245097, 4859065.474598214961588 ] ] ] } },
{ "type": "Feature", "properties": { "chip_id": "chip_000047" }, "geometry": { "type": "Polygon", "coordinates": [ [ [ -8365463.988998512737453, 4859065.474598214961588 ], [ -8365463.988998512737453, 4859443.727398809976876 ], [ -8365842.24179910775274, 4859443.727398809976876 ], [ -8365842.24179910775274, 4859065.474598214961588 ], [ -8365463.988998512737453, 4859065.474598214961588 ] ] ] } },
{ "type": "Feature", "properties": { "chip_id": "chip_000048" }, "geometry": { "type": "Polygon", "coordinates": [ [ [ -8365274.862598215229809, 4859065.474598214961588 ], [ -8365274.862598215229809, 4859443.727398809976876 ], [ -8365653.115398810245097, 4859443.727398809976876 ], [ -8365653.115398810245097, 4859065.474598214961588 ], [ -8365274.862598215229809, 4859065.474598214961588 ] ] ] } },
{ "type": "Feature", "properties": { "chip_id": "chip_000049" }, "geometry": { "type": "Polygon", "coordinates": [ [ [ -8365085.736197918653488, 4859065.474598214961588 ], [ -8365085.736197918653488, 4859443.727398809976876 ], [ -8365463.988998513668776, 4859443.727398809976876 ], [ -8365463.988998513668776, 4859065.474598214961588 ], [ -8365085.736197918653488, 4859065.474598214961588 ] ] ] } },
{ "type": "Feature", "properties": { "chip_id": "chip_000050" }, "geometry": { "type": "Polygon", "coordinates": [ [ [ -8364896.609797621145844, 4859065.474598214961588 ], [ -8364896.609797621145844, 4859443.727398809976876 ], [ -8365274.862598216161132, 4859443.727398809976876 ], [ -8365274.862598216161132, 4859065.474598214961588 ], [ -8364896.609797621145844, 4859065.474598214961588 ] ] ] } },
{ "type": "Feature", "properties": { "chip_id": "chip_000051" }, "geometry": { "type": "Polygon", "coordinates": [ [ [ -8364707.483397323638201, 4859065.474598214961588 ], [ -8364707.483397323638201, 4859443.727398809976876 ], [ -8365085.736197918653488, 4859443.727398809976876 ], [ -8365085.736197918653488, 4859065.474598214961588 ], [ -8364707.483397323638201, 4859065.474598214961588 ] ] ] } },
{ "type": "Feature", "properties": { "chip_id": "chip_000052" }, "geometry": { "type": "Polygon", "coordinates": [ [ [ -8364518.356997026130557, 4859065.474598214961588 ], [ -8364518.356997026130557, 4859443.727398809976876 ], [ -8364896.609797621145844, 4859443.727398809976876 ], [ -8364896.609797621145844, 4859065.474598214961588 ], [ -8364518.356997026130557, 4859065.474598214961588 ] ] ] } },
{ "type": "Feature", "properties": { "chip_id": "chip_000053" }, "geometry": { "type": "Polygon", "coordinates": [ [ [ -8364329.230596728622913, 4859065.474598214961588 ], [ -8364329.230596728622913, 4859443.727398809976876 ], [ -8364707.483397323638201, 4859443.727398809976876 ], [ -8364707.483397323638201, 4859065.474598214961588 ], [ -8364329.230596728622913, 4859065.474598214961588 ] ] ] } },
{ "type": "Feature", "properties": { "chip_id": "chip_000054" }, "geometry": { "type": "Polygon", "coordinates": [ [ [ -8364140.10419643111527, 4859065.474598214961588 ], [ -8364140.10419643111527, 4859443.727398809976876 ], [ -8364518.356997026130557, 4859443.727398809976876 ], [ -8364518.356997026130557, 4859065.474598214961588 ], [ -8364140.10419643111527, 4859065.474598214961588 ] ] ] } },
{ "type": "Feature", "properties": { "chip_id": "chip_000055" }, "geometry": { "type": "Polygon", "coordinates": [ [ [ -8366031.368199405260384, 4858876.348197918385267 ], [ -8366031.368199405260384, 4859254.600998513400555 ], [ -8366409.621000000275671, 4859254.600998513400555 ], [ -8366409.621000000275671, 4858876.348197918385267 ], [ -8366031.368199405260384, 4858876.348197918385267 ] ] ] } },
{ "type": "Feature", "properties": { "chip_id": "chip_000056" }, "geometry": { "type": "Polygon", "coordinates": [ [ [ -8365842.24179910775274, 4858876.348197918385267 ], [ -8365842.24179910775274, 4859254.600998513400555 ], [ -8366220.494599702768028, 4859254.600998513400555 ], [ -8366220.494599702768028, 4858876.348197918385267 ], [ -8365842.24179910775274, 4858876.348197918385267 ] ] ] } },
{ "type": "Feature", "properties": { "chip_id": "chip_000057" }, "geometry": { "type": "Polygon", "coordinates": [ [ [ -8365653.115398810245097, 4858876.348197918385267 ], [ -8365653.115398810245097, 4859254.600998513400555 ], [ -8366031.368199405260384, 4859254.600998513400555 ], [ -8366031.368199405260384, 4858876.348197918385267 ], [ -8365653.115398810245097, 4858876.348197918385267 ] ] ] } },
{ "type": "Feature", "properties": { "chip_id": "chip_000058" }, "geometry": { "type": "Polygon", "coordinates": [ [ [ -8365463.988998512737453, 4858876.348197918385267 ], [ -8365463.988998512737453, 4859254.600998513400555 ], [ -8365842.24179910775274, 4859254.600998513400555 ], [ -8365842.24179910775274, 4858876.348197918385267 ], [ -8365463.988998512737453, 4858876.348197918385267 ] ] ] } },
{ "type": "Feature", "properties": { "chip_id": "chip_000059" }, "geometry": { "type": "Polygon", "coordinates": [ [ [ -8365274.862598215229809, 4858876.348197918385267 ], [ -8365274.862598215229809, 4859254.600998513400555 ], [ -8365653.115398810245097, 4859254.600998513400555 ], [ -8365653.115398810245097, 4858876.348197918385267 ], [ -8365274.862598215229809, 4858876.348197918385267 ] ] ] } },
{ "type": "Feature", "properties": { "chip_id": "chip_000060" }, "geometry": { "type": "Polygon", "coordinates": [ [ [ -8365085.736197918653488, 4858876.348197918385267 ], [ -8365085.736197918653488, 4859254.600998513400555 ], [ -8365463.988998513668776, 4859254.600998513400555 ], [ -8365463.988998513668776, 4858876.348197918385267 ], [ -8365085.736197918653488, 4858876.348197918385267 ] ] ] } },
{ "type": "Feature", "properties": { "chip_id": "chip_000061" }, "geometry": { "type": "Polygon", "coordinates": [ [ [ -8364896.609797621145844, 4858876.348197918385267 ], [ -8364896.609797621145844, 4859254.600998513400555 ], [ -8365274.862598216161132, 4859254.600998513400555 ], [ -8365274.862598216161132, 4858876.348197918385267 ], [ -8364896.609797621145844, 4858876.348197918385267 ] ] ] } },
{ "type": "Feature", "properties": { "chip_id": "chip_000062" }, "geometry": { "type": "Polygon", "coordinates": [ [ [ -8364707.483397323638201, 4858876.348197918385267 ], [ -8364707.483397323638201, 4859254.600998513400555 ], [ -8365085.736197918653488, 4859254.600998513400555 ], [ -8365085.736197918653488, 4858876.348197918385267 ], [ -8364707.483397323638201, 4858876.348197918385267 ] ] ] } },
{ "type": "Feature", "properties": { "chip_id": "chip_000063" }, "geometry": { "type": "Polygon", "coordinates": [ [ [ -8364518.356997026130557, 4858876.348197918385267 ], [ -8364518.356997026130557, 4859254.600998513400555 ], [ -8364896.609797621145844, 4859254.600998513400555 ], [ -8364896.609797621145844, 4858876.348197918385267 ], [ -8364518.356997026130557, 4858876.348197918385267 ] ] ] } },
{ "type": "Feature", "properties": { "chip_id": "chip_000064" }, "geometry": { "type": "Polygon", "coordinates": [ [ [ -8364329.230596728622913, 4858876.348197918385267 ], [ -8364329.230596728622913, 4859254.600998513400555 ], [ -8364707.483397323638201, 4859254.600998513400555 ], [ -8364707.483397323638201, 4858876.348197918385267 ], [ -8364329.230596728622913, 4858876.348197918385267 ] ] ] } },
{ "type": "Feature", "properties": { "chip_id": "chip_000065" }, "geometry": { "type": "Polygon", "coordinates": [ [ [ -8364140.10419643111527, 4858876.348197918385267 ], [ -8364140.10419643111527, 4859254.600998513400555 ], [ -8364518.356997026130557, 4859254.600998513400555 ], [ -8364518.356997026130557, 4858876.348197918385267 ], [ -8364140.10419643111527, 4858876.348197918385267 ] ] ] } },
{ "type": "Feature", "properties": { "chip_id": "chip_000066" }, "geometry": { "type": "Polygon", "coordinates": [ [ [ -8366031.368199405260384, 4858687.221797620877624 ], [ -8366031.368199405260384, 4859065.474598215892911 ], [ -8366409.621000000275671, 4859065.474598215892911 ], [ -8366409.621000000275671, 4858687.221797620877624 ], [ -8366031.368199405260384, 4858687.221797620877624 ] ] ] } },
{ "type": "Feature", "properties": { "chip_id": "chip_000067" }, "geometry": { "type": "Polygon", "coordinates": [ [ [ -8365842.24179910775274, 4858687.221797620877624 ], [ -8365842.24179910775274, 4859065.474598215892911 ], [ -8366220.494599702768028, 4859065.474598215892911 ], [ -8366220.494599702768028, 4858687.221797620877624 ], [ -8365842.24179910775274, 4858687.221797620877624 ] ] ] } },
{ "type": "Feature", "properties": { "chip_id": "chip_000068" }, "geometry": { "type": "Polygon", "coordinates": [ [ [ -8365653.115398810245097, 4858687.221797620877624 ], [ -8365653.115398810245097, 4859065.474598215892911 ], [ -8366031.368199405260384, 4859065.474598215892911 ], [ -8366031.368199405260384, 4858687.221797620877624 ], [ -8365653.115398810245097, 4858687.221797620877624 ] ] ] } },
{ "type": "Feature", "properties": { "chip_id": "chip_000069" }, "geometry": { "type": "Polygon", "coordinates": [ [ [ -8365463.988998512737453, 4858687.221797620877624 ], [ -8365463.988998512737453, 4859065.474598215892911 ], [ -8365842.24179910775274, 4859065.474598215892911 ], [ -8365842.24179910775274, 4858687.221797620877624 ], [ -8365463.988998512737453, 4858687.221797620877624 ] ] ] } },
{ "type": "Feature", "properties": { "chip_id": "chip_000070" }, "geometry": { "type": "Polygon", "coordinates": [ [ [ -8365274.862598215229809, 4858687.221797620877624 ], [ -8365274.862598215229809, 4859065.474598215892911 ], [ -8365653.115398810245097, 4859065.474598215892911 ], [ -8365653.115398810245097, 4858687.221797620877624 ], [ -8365274.862598215229809, 4858687.221797620877624 ] ] ] } },
{ "type": "Feature", "properties": { "chip_id": "chip_000071" }, "geometry": { "type": "Polygon", "coordinates": [ [ [ -8365085.736197918653488, 4858687.221797620877624 ], [ -8365085.736197918653488, 4859065.474598215892911 ], [ -8365463.988998513668776, 4859065.474598215892911 ], [ -8365463.988998513668776, 4858687.221797620877624 ], [ -8365085.736197918653488, 4858687.221797620877624 ] ] ] } },
{ "type": "Feature", "properties": { "chip_id": "chip_000072" }, "geometry": { "type": "Polygon", "coordinates": [ [ [ -8364896.609797621145844, 4858687.221797620877624 ], [ -8364896.609797621145844, 4859065.474598215892911 ], [ -8365274.862598216161132, 4859065.474598215892911 ], [ -8365274.862598216161132, 4858687.221797620877624 ], [ -8364896.609797621145844, 4858687.221797620877624 ] ] ] } },
{ "type": "Feature", "properties": { "chip_id": "chip_000073" }, "geometry": { "type": "Polygon", "coordinates": [ [ [ -8364707.483397323638201, 4858687.221797620877624 ], [ -8364707.483397323638201, 4859065.474598215892911 ], [ -8365085.736197918653488, 4859065.474598215892911 ], [ -8365085.736197918653488, 4858687.221797620877624 ], [ -8364707.483397323638201, 4858687.221797620877624 ] ] ] } },
{ "type": "Feature", "properties": { "chip_id": "chip_000074" }, "geometry": { "type": "Polygon", "coordinates": [ [ [ -8364518.356997026130557, 4858687.221797620877624 ], [ -8364518.356997026130557, 4859065.474598215892911 ], [ -8364896.609797621145844, 4859065.474598215892911 ], [ -8364896.609797621145844, 4858687.221797620877624 ], [ -8364518.356997026130557, 4858687.221797620877624 ] ] ] } },
{ "type": "Feature", "properties": { "chip_id": "chip_000075" }, "geometry": { "type": "Polygon", "coordinates": [ [ [ -8364329.230596728622913, 4858687.221797620877624 ], [ -8364329.230596728622913, 4859065.474598215892911 ], [ -8364707.483397323638201, 4859065.474598215892911 ], [ -8364707.483397323638201, 4858687.221797620877624 ], [ -8364329.230596728622913, 4858687.221797620877624 ] ] ] } },
{ "type": "Feature", "properties": { "chip_id": "chip_000076" }, "geometry": { "type": "Polygon", "coordinates": [ [ [ -8364140.10419643111527, 4858687.221797620877624 ], [ -8364140.10419643111527, 4859065.474598215892911 ], [ -8364518.356997026130557, 4859065.474598215892911 ], [ -8364518.356997026130557, 4858687.221797620877624 ], [ -8364140.10419643111527, 4858687.221797620877624 ] ] ] } },
{ "type": "Feature", "properties": { "chip_id": "chip_000077" }, "geometry": { "type": "Polygon", "coordinates": [ [ [ -8366031.368199405260384, 4858498.09539732336998 ], [ -8366031.368199405260384, 4858876.348197918385267 ], [ -8366409.621000000275671, 4858876.348197918385267 ], [ -8366409.621000000275671, 4858498.09539732336998 ], [ -8366031.368199405260384, 4858498.09539732336998 ] ] ] } },
{ "type": "Feature", "properties": { "chip_id": "chip_000078" }, "geometry": { "type": "Polygon", "coordinates": [ [ [ -8365842.24179910775274, 4858498.09539732336998 ], [ -8365842.24179910775274, 4858876.348197918385267 ], [ -8366220.494599702768028, 4858876.348197918385267 ], [ -8366220.494599702768028, 4858498.09539732336998 ], [ -8365842.24179910775274, 4858498.09539732336998 ] ] ] } },
{ "type": "Feature", "properties": { "chip_id": "chip_000079" }, "geometry": { "type": "Polygon", "coordinates": [ [ [ -8365653.115398810245097, 4858498.09539732336998 ], [ -8365653.115398810245097, 4858876.348197918385267 ], [ -8366031.368199405260384, 4858876.348197918385267 ], [ -8366031.368199405260384, 4858498.09539732336998 ], [ -8365653.115398810245097, 4858498.09539732336998 ] ] ] } },
{ "type": "Feature", "properties": { "chip_id": "chip_000080" }, "geometry": { "type": "Polygon", "coordinates": [ [ [ -8365463.988998512737453, 4858498.09539732336998 ], [ -8365463.988998512737453, 4858876.348197918385267 ], [ -8365842.24179910775274, 4858876.348197918385267 ], [ -8365842.24179910775274, 4858498.09539732336998 ], [ -8365463.988998512737453, 4858498.09539732336998 ] ] ] } },
{ "type": "Feature", "properties": { "chip_id": "chip_000081" }, "geometry": { "type": "Polygon", "coordinates": [ [ [ -8365274.862598215229809, 4858498.09539732336998 ], [ -8365274.862598215229809, 4858876.348197918385267 ], [ -8365653.115398810245097, 4858876.348197918385267 ], [ -8365653.115398810245097, 4858498.09539732336998 ], [ -8365274.862598215229809, 4858498.09539732336998 ] ] ] } },
{ "type": "Feature", "properties": { "chip_id": "chip_000082" }, "geometry": { "type": "Polygon", "coordinates": [ [ [ -8365085.736197918653488, 4858498.09539732336998 ], [ -8365085.736197918653488, 4858876.348197918385267 ], [ -8365463.988998513668776, 4858876.348197918385267 ], [ -8365463.988998513668776, 4858498.09539732336998 ], [ -8365085.736197918653488, 4858498.09539732336998 ] ] ] } },
{ "type": "Feature", "properties": { "chip_id": "chip_000083" }, "geometry": { "type": "Polygon", "coordinates": [ [ [ -8364896.609797621145844, 4858498.09539732336998 ], [ -8364896.609797621145844, 4858876.348197918385267 ], [ -8365274.862598216161132, 4858876.348197918385267 ], [ -8365274.862598216161132, 4858498.09539732336998 ], [ -8364896.609797621145844, 4858498.09539732336998 ] ] ] } },
{ "type": "Feature", "properties": { "chip_id": "chip_000084" }, "geometry": { "type": "Polygon", "coordinates": [ [ [ -8364707.483397323638201, 4858498.09539732336998 ], [ -8364707.483397323638201, 4858876.348197918385267 ], [ -8365085.736197918653488, 4858876.348197918385267 ], [ -8365085.736197918653488, 4858498.09539732336998 ], [ -8364707.483397323638201, 4858498.09539732336998 ] ] ] } },
{ "type": "Feature", "properties": { "chip_id": "chip_000085" }, "geometry": { "type": "Polygon", "coordinates": [ [ [ -8364518.356997026130557, 4858498.09539732336998 ], [ -8364518.356997026130557, 4858876.348197918385267 ], [ -8364896.609797621145844, 4858876.348197918385267 ], [ -8364896.609797621145844, 4858498.09539732336998 ], [ -8364518.356997026130557, 4858498.09539732336998 ] ] ] } },
{ "type": "Feature", "properties": { "chip_id": "chip_000086" }, "geometry": { "type": "Polygon", "coordinates": [ [ [ -8364329.230596728622913, 4858498.09539732336998 ], [ -8364329.230596728622913, 4858876.348197918385267 ], [ -8364707.483397323638201, 4858876.348197918385267 ], [ -8364707.483397323638201, 4858498.09539732336998 ], [ -8364329.230596728622913, 4858498.09539732336998 ] ] ] } },
{ "type": "Feature", "properties": { "chip_id": "chip_000087" }, "geometry": { "type": "Polygon", "coordinates": [ [ [ -8364140.10419643111527, 4858498.09539732336998 ], [ -8364140.10419643111527, 4858876.348197918385267 ], [ -8364518.356997026130557, 4858876.348197918385267 ], [ -8364518.356997026130557, 4858498.09539732336998 ], [ -8364140.10419643111527, 4858498.09539732336998 ] ] ] } },
{ "type": "Feature", "properties": { "chip_id": "chip_000088" }, "geometry": { "type": "Polygon", "coordinates": [ [ [ -8366031.368199405260384, 4858308.968997025862336 ], [ -8366031.368199405260384, 4858687.221797620877624 ], [ -8366409.621000000275671, 4858687.221797620877624 ], [ -8366409.621000000275671, 4858308.968997025862336 ], [ -8366031.368199405260384, 4858308.968997025862336 ] ] ] } },
{ "type": "Feature", "properties": { "chip_id": "chip_000089" }, "geometry": { "type": "Polygon", "coordinates": [ [ [ -8365842.24179910775274, 4858308.968997025862336 ], [ -8365842.24179910775274, 4858687.221797620877624 ], [ -8366220.494599702768028, 4858687.221797620877624 ], [ -8366220.494599702768028, 4858308.968997025862336 ], [ -8365842.24179910775274, 4858308.968997025862336 ] ] ] } },
{ "type": "Feature", "properties": { "chip_id": "chip_000090" }, "geometry": { "type": "Polygon", "coordinates": [ [ [ -8365653.115398810245097, 4858308.968997025862336 ], [ -8365653.115398810245097, 4858687.221797620877624 ], [ -8366031.368199405260384, 4858687.221797620877624 ], [ -8366031.368199405260384, 4858308.968997025862336 ], [ -8365653.115398810245097, 4858308.968997025862336 ] ] ] } },
{ "type": "Feature", "properties": { "chip_id": "chip_000091" }, "geometry": { "type": "Polygon", "coordinates": [ [ [ -8365463.988998512737453, 4858308.968997025862336 ], [ -8365463.988998512737453, 4858687.221797620877624 ], [ -8365842.24179910775274, 4858687.221797620877624 ], [ -8365842.24179910775274, 4858308.968997025862336 ], [ -8365463.988998512737453, 4858308.968997025862336 ] ] ] } },
{ "type": "Feature", "properties": { "chip_id": "chip_000092" }, "geometry": { "type": "Polygon", "coordinates": [ [ [ -8365274.862598215229809, 4858308.968997025862336 ], [ -8365274.862598215229809, 4858687.221797620877624 ], [ -8365653.115398810245097, 4858687.221797620877624 ], [ -8365653.115398810245097, 4858308.968997025862336 ], [ -8365274.862598215229809, 4858308.968997025862336 ] ] ] } },
{ "type": "Feature", "properties": { "chip_id": "chip_000093" }, "geometry": { "type": "Polygon", "coordinates": [ [ [ -8365085.736197918653488, 4858308.968997025862336 ], [ -8365085.736197918653488, 4858687.221797620877624 ], [ -8365463.988998513668776, 4858687.221797620877624 ], [ -8365463.988998513668776, 4858308.968997025862336 ], [ -8365085.736197918653488, 4858308.968997025862336 ] ] ] } },
{ "type": "Feature", "properties": { "chip_id": "chip_000094" }, "geometry": { "type": "Polygon", "coordinates": [ [ [ -8364896.609797621145844, 4858308.968997025862336 ], [ -8364896.609797621145844, 4858687.221797620877624 ], [ -8365274.862598216161132, 4858687.221797620877624 ], [ -8365274.862598216161132, 4858308.968997025862336 ], [ -8364896.609797621145844, 4858308.968997025862336 ] ] ] } },
{ "type": "Feature", "properties": { "chip_id": "chip_000095" }, "geometry": { "type": "Polygon", "coordinates": [ [ [ -8364707.483397323638201, 4858308.968997025862336 ], [ -8364707.483397323638201, 4858687.221797620877624 ], [ -8365085.736197918653488, 4858687.221797620877624 ], [ -8365085.736197918653488, 4858308.968997025862336 ], [ -8364707.483397323638201, 4858308.968997025862336 ] ] ] } },
{ "type": "Feature", "properties": { "chip_id": "chip_000096" }, "geometry": { "type": "Polygon", "coordinates": [ [ [ -8364518.356997026130557, 4858308.968997025862336 ], [ -8364518.356997026130557, 4858687.221797620877624 ], [ -8364896.609797621145844, 4858687.221797620877624 ], [ -8364896.609797621145844, 4858308.968997025862336 ], [ -8364518.356997026130557, 4858308.968997025862336 ] ] ] } },
{ "type": "Feature", "properties": { "chip_id": "chip_000097" }, "geometry": { "type": "Polygon", "coordinates": [ [ [ -8364329.230596728622913, 4858308.968997025862336 ], [ -8364329.230596728622913, 4858687.221797620877624 ], [ -8364707.483397323638201, 4858687.221797620877624 ], [ -8364707.483397323638201, 4858308.968997025862336 ], [ -8364329.230596728622913, 4858308.968997025862336 ] ] ] } },
{ "type": "Feature", "properties": { "chip_id": "chip_000098" }, "geometry": { "type": "Polygon", "coordinates": [ [ [ -8364140.10419643111527, 4858308.968997025862336 ], [ -8364140.10419643111527, 4858687.221797620877624 ], [ -8364518.356997026130557, 4858687.221797620877624 ], [ -8364518.356997026130557, 4858308.968997025862336 ], [ -8364140.10419643111527, 4858308.968997025862336 ] ] ] } },
{ "type": "Feature", "properties": { "chip_id": "chip_000099" }, "geometry": { "type": "Polygon", "coordinates": [ [ [ -8366031.368199405260384, 4858119.842596728354692 ], [ -8366031.368199405260384, 4858498.09539732336998 ], [ -8366409.621000000275671, 4858498.09539732336998 ], [ -8366409.621000000275671, 4858119.842596728354692 ], [ -8366031.368199405260384, 4858119.842596728354692 ] ] ] } },
{ "type": "Feature", "properties": { "chip_id": "chip_000100" }, "geometry": { "type": "Polygon", "coordinates": [ [ [ -8365842.24179910775274, 4858119.842596728354692 ], [ -8365842.24179910775274, 4858498.09539732336998 ], [ -8366220.494599702768028, 4858498.09539732336998 ], [ -8366220.494599702768028, 4858119.842596728354692 ], [ -8365842.24179910775274, 4858119.842596728354692 ] ] ] } },
{ "type": "Feature", "properties": { "chip_id": "chip_000101" }, "geometry": { "type": "Polygon", "coordinates": [ [ [ -8365653.115398810245097, 4858119.842596728354692 ], [ -8365653.115398810245097, 4858498.09539732336998 ], [ -8366031.368199405260384, 4858498.09539732336998 ], [ -8366031.368199405260384, 4858119.842596728354692 ], [ -8365653.115398810245097, 4858119.842596728354692 ] ] ] } },
{ "type": "Feature", "properties": { "chip_id": "chip_000102" }, "geometry": { "type": "Polygon", "coordinates": [ [ [ -8365463.988998512737453, 4858119.842596728354692 ], [ -8365463.988998512737453, 4858498.09539732336998 ], [ -8365842.24179910775274, 4858498.09539732336998 ], [ -8365842.24179910775274, 4858119.842596728354692 ], [ -8365463.988998512737453, 4858119.842596728354692 ] ] ] } },
{ "type": "Feature", "properties": { "chip_id": "chip_000103" }, "geometry": { "type": "Polygon", "coordinates": [ [ [ -8365274.862598215229809, 4858119.842596728354692 ], [ -8365274.862598215229809, 4858498.09539732336998 ], [ -8365653.115398810245097, 4858498.09539732336998 ], [ -8365653.115398810245097, 4858119.842596728354692 ], [ -8365274.862598215229809, 4858119.842596728354692 ] ] ] } },
{ "type": "Feature", "properties": { "chip_id": "chip_000104" }, "geometry": { "type": "Polygon", "coordinates": [ [ [ -8365085.736197918653488, 4858119.842596728354692 ], [ -8365085.736197918653488, 4858498.09539732336998 ], [ -8365463.988998513668776, 4858498.09539732336998 ], [ -8365463.988998513668776, 4858119.842596728354692 ], [ -8365085.736197918653488, 4858119.842596728354692 ] ] ] } },
{ "type": "Feature", "properties": { "chip_id": "chip_000105" }, "geometry": { "type": "Polygon", "coordinates": [ [ [ -8364896.609797621145844, 4858119.842596728354692 ], [ -8364896.609797621145844, 4858498.09539732336998 ], [ -8365274.862598216161132, 4858498.09539732336998 ], [ -8365274.862598216161132, 4858119.842596728354692 ], [ -8364896.609797621145844, 4858119.842596728354692 ] ] ] } },
{ "type": "Feature", "properties": { "chip_id": "chip_000106" }, "geometry": { "type": "Polygon", "coordinates": [ [ [ -8364707.483397323638201, 4858119.842596728354692 ], [ -8364707.483397323638201, 4858498.09539732336998 ], [ -8365085.736197918653488, 4858498.09539732336998 ], [ -8365085.736197918653488, 4858119.842596728354692 ], [ -8364707.483397323638201, 4858119.842596728354692 ] ] ] } },
{ "type": "Feature", "properties": { "chip_id": "chip_000107" }, "geometry": { "type": "Polygon", "coordinates": [ [ [ -8364518.356997026130557, 4858119.842596728354692 ], [ -8364518.356997026130557, 4858498.09539732336998 ], [ -8364896.609797621145844, 4858498.09539732336998 ], [ -8364896.609797621145844, 4858119.842596728354692 ], [ -8364518.356997026130557, 4858119.842596728354692 ] ] ] } },
{ "type": "Feature", "properties": { "chip_id": "chip_000108" }, "geometry": { "type": "Polygon", "coordinates": [ [ [ -8364329.230596728622913, 4858119.842596728354692 ], [ -8364329.230596728622913, 4858498.09539732336998 ], [ -8364707.483397323638201, 4858498.09539732336998 ], [ -8364707.483397323638201, 4858119.842596728354692 ], [ -8364329.230596728622913, 4858119.842596728354692 ] ] ] } },
{ "type": "Feature", "properties": { "chip_id": "chip_000109" }, "geometry": { "type": "Polygon", "coordinates": [ [ [ -8366031.368199405260384, 4857930.716196430847049 ], [ -8366031.368199405260384, 4858308.968997025862336 ], [ -8366409.621000000275671, 4858308.968997025862336 ], [ -8366409.621000000275671, 4857930.716196430847049 ], [ -8366031.368199405260384, 4857930.716196430847049 ] ] ] } },
{ "type": "Feature", "properties": { "chip_id": "chip_000110" }, "geometry": { "type": "Polygon", "coordinates": [ [ [ -8365842.24179910775274, 4857930.716196430847049 ], [ -8365842.24179910775274, 4858308.968997025862336 ], [ -8366220.494599702768028, 4858308.968997025862336 ], [ -8366220.494599702768028, 4857930.716196430847049 ], [ -8365842.24179910775274, 4857930.716196430847049 ] ] ] } },
{ "type": "Feature", "properties": { "chip_id": "chip_000111" }, "geometry": { "type": "Polygon", "coordinates": [ [ [ -8365653.115398810245097, 4857930.716196430847049 ], [ -8365653.115398810245097, 4858308.968997025862336 ], [ -8366031.368199405260384, 4858308.968997025862336 ], [ -8366031.368199405260384, 4857930.716196430847049 ], [ -8365653.115398810245097, 4857930.716196430847049 ] ] ] } },
{ "type": "Feature", "properties": { "chip_id": "chip_000112" }, "geometry": { "type": "Polygon", "coordinates": [ [ [ -8365463.988998512737453, 4857930.716196430847049 ], [ -8365463.988998512737453, 4858308.968997025862336 ], [ -8365842.24179910775274, 4858308.968997025862336 ], [ -8365842.24179910775274, 4857930.716196430847049 ], [ -8365463.988998512737453, 4857930.716196430847049 ] ] ] } },
{ "type": "Feature", "properties": { "chip_id": "chip_000113" }, "geometry": { "type": "Polygon", "coordinates": [ [ [ -8365274.862598215229809, 4857930.716196430847049 ], [ -8365274.862598215229809, 4858308.968997025862336 ], [ -8365653.115398810245097, 4858308.968997025862336 ], [ -8365653.115398810245097, 4857930.716196430847049 ], [ -8365274.862598215229809, 4857930.716196430847049 ] ] ] } },
{ "type": "Feature", "properties": { "chip_id": "chip_000114" }, "geometry": { "type": "Polygon", "coordinates": [ [ [ -8365085.736197918653488, 4857930.716196430847049 ], [ -8365085.736197918653488, 4858308.968997025862336 ], [ -8365463.988998513668776, 4858308.968997025862336 ], [ -8365463.988998513668776, 4857930.716196430847049 ], [ -8365085.736197918653488, 4857930.716196430847049 ] ] ] } },
{ "type": "Feature", "properties": { "chip_id": "chip_000115" }, "geometry": { "type": "Polygon", "coordinates": [ [ [ -8364896.609797621145844, 4857930.716196430847049 ], [ -8364896.609797621145844, 4858308.968997025862336 ], [ -8365274.862598216161132, 4858308.968997025862336 ], [ -8365274.862598216161132, 4857930.716196430847049 ], [ -8364896.609797621145844, 4857930.716196430847049 ] ] ] } },
{ "type": "Feature", "properties": { "chip_id": "chip_000116" }, "geometry": { "type": "Polygon", "coordinates": [ [ [ -8364707.483397323638201, 4857930.716196430847049 ], [ -8364707.483397323638201, 4858308.968997025862336 ], [ -8365085.736197918653488, 4858308.968997025862336 ], [ -8365085.736197918653488, 4857930.716196430847049 ], [ -8364707.483397323638201, 4857930.716196430847049 ] ] ] } },
{ "type": "Feature", "properties": { "chip_id": "chip_000117" }, "geometry": { "type": "Polygon", "coordinates": [ [ [ -8364518.356997026130557, 4857930.716196430847049 ], [ -8364518.356997026130557, 4858308.968997025862336 ], [ -8364896.609797621145844, 4858308.968997025862336 ], [ -8364896.609797621145844, 4857930.716196430847049 ], [ -8364518.356997026130557, 4857930.716196430847049 ] ] ] } },
{ "type": "Feature", "properties": { "chip_id": "chip_000118" }, "geometry": { "type": "Polygon", "coordinates": [ [ [ -8364329.230596728622913, 4857930.716196430847049 ], [ -8364329.230596728622913, 4858308.968997025862336 ], [ -8364707.483397323638201, 4858308.968997025862336 ], [ -8364707.483397323638201, 4857930.716196430847049 ], [ -8364329.230596728622913, 4857930.716196430847049 ] ] ] } },
{ "type": "Feature", "properties": { "chip_id": "chip_000119" }, "geometry": { "type": "Polygon", "coordinates": [ [ [ -8366031.368199405260384, 4857741.589796133339405 ], [ -8366031.368199405260384, 4858119.842596728354692 ], [ -8366409.621000000275671, 4858119.842596728354692 ], [ -8366409.621000000275671, 4857741.589796133339405 ], [ -8366031.368199405260384, 4857741.589796133339405 ] ] ] } },
{ "type": "Feature", "properties": { "chip_id": "chip_000120" }, "geometry": { "type": "Polygon", "coordinates": [ [ [ -8365842.24179910775274, 4857741.589796133339405 ], [ -8365842.24179910775274, 4858119.842596728354692 ], [ -8366220.494599702768028, 4858119.842596728354692 ], [ -8366220.494599702768028, 4857741.589796133339405 ], [ -8365842.24179910775274, 4857741.589796133339405 ] ] ] } },
{ "type": "Feature", "properties": { "chip_id": "chip_000121" }, "geometry": { "type": "Polygon", "coordinates": [ [ [ -8365653.115398810245097, 4857741.589796133339405 ], [ -8365653.115398810245097, 4858119.842596728354692 ], [ -8366031.368199405260384, 4858119.842596728354692 ], [ -8366031.368199405260384, 4857741.589796133339405 ], [ -8365653.115398810245097, 4857741.589796133339405 ] ] ] } },
{ "type": "Feature", "properties": { "chip_id": "chip_000122" }, "geometry": { "type": "Polygon", "coordinates": [ [ [ -8365463.988998512737453, 4857741.589796133339405 ], [ -8365463.988998512737453, 4858119.842596728354692 ], [ -8365842.24179910775274, 4858119.842596728354692 ], [ -8365842.24179910775274, 4857741.589796133339405 ], [ -8365463.988998512737453, 4857741.589796133339405 ] ] ] } },
{ "type": "Feature", "properties": { "chip_id": "chip_000123" }, "geometry": { "type": "Polygon", "coordinates": [ [ [ -8365274.862598215229809, 4857741.589796133339405 ], [ -8365274.862598215229809, 4858119.842596728354692 ], [ -8365653.115398810245097, 4858119.842596728354692 ], [ -8365653.115398810245097, 4857741.589796133339405 ], [ -8365274.862598215229809, 4857741.589796133339405 ] ] ] } },
{ "type": "Feature", "properties": { "chip_id": "chip_000124" }, "geometry": { "type": "Polygon", "coordinates": [ [ [ -8365085.736197918653488, 4857741.589796133339405 ], [ -8365085.736197918653488, 4858119.842596728354692 ], [ -8365463.988998513668776, 4858119.842596728354692 ], [ -8365463.988998513668776, 4857741.589796133339405 ], [ -8365085.736197918653488, 4857741.589796133339405 ] ] ] } },
{ "type": "Feature", "properties": { "chip_id": "chip_000125" }, "geometry": { "type": "Polygon", "coordinates": [ [ [ -8364896.609797621145844, 4857741.589796133339405 ], [ -8364896.609797621145844, 4858119.842596728354692 ], [ -8365274.862598216161132, 4858119.842596728354692 ], [ -8365274.862598216161132, 4857741.589796133339405 ], [ -8364896.609797621145844, 4857741.589796133339405 ] ] ] } },
{ "type": "Feature", "properties": { "chip_id": "chip_000126" }, "geometry": { "type": "Polygon", "coordinates": [ [ [ -8364707.483397323638201, 4857741.589796133339405 ], [ -8364707.483397323638201, 4858119.842596728354692 ], [ -8365085.736197918653488, 4858119.842596728354692 ], [ -8365085.736197918653488, 4857741.589796133339405 ], [ -8364707.483397323638201, 4857741.589796133339405 ] ] ] } },
{ "type": "Feature", "properties": { "chip_id": "chip_000127" }, "geometry": { "type": "Polygon", "coordinates": [ [ [ -8364518.356997026130557, 4857741.589796133339405 ], [ -8364518.356997026130557, 4858119.842596728354692 ], [ -8364896.609797621145844, 4858119.842596728354692 ], [ -8364896.609797621145844, 4857741.589796133339405 ], [ -8364518.356997026130557, 4857741.589796133339405 ] ] ] } },
{ "type": "Feature", "properties": { "chip_id": "chip_000128" }, "geometry": { "type": "Polygon", "coordinates": [ [ [ -8364329.230596728622913, 4857741.589796133339405 ], [ -8364329.230596728622913, 4858119.842596728354692 ], [ -8364707.483397323638201, 4858119.842596728354692 ], [ -8364707.483397323638201, 4857741.589796133339405 ], [ -8364329.230596728622913, 4857741.589796133339405 ] ] ] } },
{ "type": "Feature", "properties": { "chip_id": "chip_000129" }, "geometry": { "type": "Polygon", "coordinates": [ [ [ -8366031.368199405260384, 4857552.463395835831761 ], [ -8366031.368199405260384, 4857930.716196430847049 ], [ -8366409.621000000275671, 4857930.716196430847049 ], [ -8366409.621000000275671, 4857552.463395835831761 ], [ -8366031.368199405260384, 4857552.463395835831761 ] ] ] } },
{ "type": "Feature", "properties": { "chip_id": "chip_000130" }, "geometry": { "type": "Polygon", "coordinates": [ [ [ -8365842.24179910775274, 4857552.463395835831761 ], [ -8365842.24179910775274, 4857930.716196430847049 ], [ -8366220.494599702768028, 4857930.716196430847049 ], [ -8366220.494599702768028, 4857552.463395835831761 ], [ -8365842.24179910775274, 4857552.463395835831761 ] ] ] } },
{ "type": "Feature", "properties": { "chip_id": "chip_000131" }, "geometry": { "type": "Polygon", "coordinates": [ [ [ -8365653.115398810245097, 4857552.463395835831761 ], [ -8365653.115398810245097, 4857930.716196430847049 ], [ -8366031.368199405260384, 4857930.716196430847049 ], [ -8366031.368199405260384, 4857552.463395835831761 ], [ -8365653.115398810245097, 4857552.463395835831761 ] ] ] } },
{ "type": "Feature", "properties": { "chip_id": "chip_000132" }, "geometry": { "type": "Polygon", "coordinates": [ [ [ -8365463.988998512737453, 4857552.463395835831761 ], [ -8365463.988998512737453, 4857930.716196430847049 ], [ -8365842.24179910775274, 4857930.716196430847049 ], [ -8365842.24179910775274, 4857552.463395835831761 ], [ -8365463.988998512737453, 4857552.463395835831761 ] ] ] } },
{ "type": "Feature", "properties": { "chip_id": "chip_000133" }, "geometry": { "type": "Polygon", "coordinates": [ [ [ -8365274.862598215229809, 4857552.463395835831761 ], [ -8365274.862598215229809, 4857930.716196430847049 ], [ -8365653.115398810245097, 4857930.716196430847049 ], [ -8365653.115398810245097, 4857552.463395835831761 ], [ -8365274.862598215229809, 4857552.463395835831761 ] ] ] } },
{ "type": "Feature", "properties": { "chip_id": "chip_000134" }, "geometry": { "type": "Polygon", "coordinates": [ [ [ -8365085.736197918653488, 4857552.463395835831761 ], [ -8365085.736197918653488, 4857930.716196430847049 ], [ -8365463.988998513668776, 4857930.716196430847049 ], [ -8365463.988998513668776, 4857552.463395835831761 ], [ -8365085.736197918653488, 4857552.463395835831761 ] ] ] } },
{ "type": "Feature", "properties": { "chip_id": "chip_000135" }, "geometry": { "type": "Polygon", "coordinates": [ [ [ -8364896.609797621145844, 4857552.463395835831761 ], [ -8364896.609797621145844, 4857930.716196430847049 ], [ -8365274.862598216161132, 4857930.716196430847049 ], [ -8365274.862598216161132, 4857552.463395835831761 ], [ -8364896.609797621145844, 4857552.463395835831761 ] ] ] } },
{ "type": "Feature", "properties": { "chip_id": "chip_000136" }, "geometry": { "type": "Polygon", "coordinates": [ [ [ -8364707.483397323638201, 4857552.463395835831761 ], [ -8364707.483397323638201, 4857930.716196430847049 ], [ -8365085.736197918653488, 4857930.716196430847049 ], [ -8365085.736197918653488, 4857552.463395835831761 ], [ -8364707.483397323638201, 4857552.463395835831761 ] ] ] } },
{ "type": "Feature", "properties": { "chip_id": "chip_000137" }, "geometry": { "type": "Polygon", "coordinates": [ [ [ -8364518.356997026130557, 4857552.463395835831761 ], [ -8364518.356997026130557, 4857930.716196430847049 ], [ -8364896.609797621145844, 4857930.716196430847049 ], [ -8364896.609797621145844, 4857552.463395835831761 ], [ -8364518.356997026130557, 4857552.463395835831761 ] ] ] } },
{ "type": "Feature", "properties": { "chip_id": "chip_000138" }, "geometry": { "type": "Polygon", "coordinates": [ [ [ -8364329.230596728622913, 4857552.463395835831761 ], [ -8364329.230596728622913, 4857930.716196430847049 ], [ -8364707.483397323638201, 4857930.716196430847049 ], [ -8364707.483397323638201, 4857552.463395835831761 ], [ -8364329.230596728622913, 4857552.463395835831761 ] ] ] } },
{ "type": "Feature", "properties": { "chip_id": "chip_000139" }, "geometry": { "type": "Polygon", "coordinates": [ [ [ -8366031.368199405260384, 4857363.33699553925544 ], [ -8366031.368199405260384, 4857741.589796134270728 ], [ -8366409.621000000275671, 4857741.589796134270728 ], [ -8366409.621000000275671, 4857363.33699553925544 ], [ -8366031.368199405260384, 4857363.33699553925544 ] ] ] } },
{ "type": "Feature", "properties": { "chip_id": "chip_000140" }, "geometry": { "type": "Polygon", "coordinates": [ [ [ -8365842.24179910775274, 4857363.33699553925544 ], [ -8365842.24179910775274, 4857741.589796134270728 ], [ -8366220.494599702768028, 4857741.589796134270728 ], [ -8366220.494599702768028, 4857363.33699553925544 ], [ -8365842.24179910775274, 4857363.33699553925544 ] ] ] } },
{ "type": "Feature", "properties": { "chip_id": "chip_000141" }, "geometry": { "type": "Polygon", "coordinates": [ [ [ -8365653.115398810245097, 4857363.33699553925544 ], [ -8365653.115398810245097, 4857741.589796134270728 ], [ -8366031.368199405260384, 4857741.589796134270728 ], [ -8366031.368199405260384, 4857363.33699553925544 ], [ -8365653.115398810245097, 4857363.33699553925544 ] ] ] } },
{ "type": "Feature", "properties": { "chip_id": "chip_000142" }, "geometry": { "type": "Polygon", "coordinates": [ [ [ -8365463.988998512737453, 4857363.33699553925544 ], [ -8365463.988998512737453, 4857741.589796134270728 ], [ -8365842.24179910775274, 4857741.589796134270728 ], [ -8365842.24179910775274, 4857363.33699553925544 ], [ -8365463.988998512737453, 4857363.33699553925544 ] ] ] } },
{ "type": "Feature", "properties": { "chip_id": "chip_000143" }, "geometry": { "type": "Polygon", "coordinates": [ [ [ -8365274.862598215229809, 4857363.33699553925544 ], [ -8365274.862598215229809, 4857741.589796134270728 ], [ -8365653.115398810245097, 4857741.589796134270728 ], [ -8365653.115398810245097, 4857363.33699553925544 ], [ -8365274.862598215229809, 4857363.33699553925544 ] ] ] } },
{ "type": "Feature", "properties": { "chip_id": "chip_000144" }, "geometry": { "type": "Polygon", "coordinates": [ [ [ -8365085.736197918653488, 4857363.33699553925544 ], [ -8365085.736197918653488, 4857741.589796134270728 ], [ -8365463.988998513668776, 4857741.589796134270728 ], [ -8365463.988998513668776, 4857363.33699553925544 ], [ -8365085.736197918653488, 4857363.33699553925544 ] ] ] } },
{ "type": "Feature", "properties": { "chip_id": "chip_000145" }, "geometry": { "type": "Polygon", "coordinates": [ [ [ -8364896.609797621145844, 4857363.33699553925544 ], [ -8364896.609797621145844, 4857741.589796134270728 ], [ -8365274.862598216161132, 4857741.589796134270728 ], [ -8365274.862598216161132, 4857363.33699553925544 ], [ -8364896.609797621145844, 4857363.33699553925544 ] ] ] } },
{ "type": "Feature", "properties": { "chip_id": "chip_000146" }, "geometry": { "type": "Polygon", "coordinates": [ [ [ -8364707.483397323638201, 4857363.33699553925544 ], [ -8364707.483397323638201, 4857741.589796134270728 ], [ -8365085.736197918653488, 4857741.589796134270728 ], [ -8365085.736197918653488, 4857363.33699553925544 ], [ -8364707.483397323638201, 4857363.33699553925544 ] ] ] } },
{ "type": "Feature", "properties": { "chip_id": "chip_000147" }, "geometry": { "type": "Polygon", "coordinates": [ [ [ -8364518.356997026130557, 4857363.33699553925544 ], [ -8364518.356997026130557, 4857741.589796134270728 ], [ -8364896.609797621145844, 4857741.589796134270728 ], [ -8364896.609797621145844, 4857363.33699553925544 ], [ -8364518.356997026130557, 4857363.33699553925544 ] ] ] } },
{ "type": "Feature", "properties": { "chip_id": "chip_000148" }, "geometry": { "type": "Polygon", "coordinates": [ [ [ -8364329.230596728622913, 4857363.33699553925544 ], [ -8364329.230596728622913, 4857741.589796134270728 ], [ -8364707.483397323638201, 4857741.589796134270728 ], [ -8364707.483397323638201, 4857363.33699553925544 ], [ -8364329.230596728622913, 4857363.33699553925544 ] ] ] } },
{ "type": "Feature", "properties": { "chip_id": "chip_000149" }, "geometry": { "type": "Polygon", "coordinates": [ [ [ -8366031.368199405260384, 4857174.210595241747797 ], [ -8366031.368199405260384, 4857552.463395836763084 ], [ -8366409.621000000275671, 4857552.463395836763084 ], [ -8366409.621000000275671, 4857174.210595241747797 ], [ -8366031.368199405260384, 4857174.210595241747797 ] ] ] } },
{ "type": "Feature", "properties": { "chip_id": "chip_000150" }, "geometry": { "type": "Polygon", "coordinates": [ [ [ -8365842.24179910775274, 4857174.210595241747797 ], [ -8365842.24179910775274, 4857552.463395836763084 ], [ -8366220.494599702768028, 4857552.463395836763084 ], [ -8366220.494599702768028, 4857174.210595241747797 ], [ -8365842.24179910775274, 4857174.210595241747797 ] ] ] } },
{ "type": "Feature", "properties": { "chip_id": "chip_000151" }, "geometry": { "type": "Polygon", "coordinates": [ [ [ -8365653.115398810245097, 4857174.210595241747797 ], [ -8365653.115398810245097, 4857552.463395836763084 ], [ -8366031.368199405260384, 4857552.463395836763084 ], [ -8366031.368199405260384, 4857174.210595241747797 ], [ -8365653.115398810245097, 4857174.210595241747797 ] ] ] } },
{ "type": "Feature", "properties": { "chip_id": "chip_000152" }, "geometry": { "type": "Polygon", "coordinates": [ [ [ -8365463.988998512737453, 4857174.210595241747797 ], [ -8365463.988998512737453, 4857552.463395836763084 ], [ -8365842.24179910775274, 4857552.463395836763084 ], [ -8365842.24179910775274, 4857174.210595241747797 ], [ -8365463.988998512737453, 4857174.210595241747797 ] ] ] } },
{ "type": "Feature", "properties": { "chip_id": "chip_000153" }, "geometry": { "type": "Polygon", "coordinates": [ [ [ -8365274.862598215229809, 4857174.210595241747797 ], [ -8365274.862598215229809, 4857552.463395836763084 ], [ -8365653.115398810245097, 4857552.463395836763084 ], [ -8365653.115398810245097, 4857174.210595241747797 ], [ -8365274.862598215229809, 4857174.210595241747797 ] ] ] } },
{ "type": "Feature", "properties": { "chip_id": "chip_000154" }, "geometry": { "type": "Polygon", "coordinates": [ [ [ -8365085.736197918653488, 4857174.210595241747797 ], [ -8365085.736197918653488, 4857552.463395836763084 ], [ -8365463.988998513668776, 4857552.463395836763084 ], [ -8365463.988998513668776, 4857174.210595241747797 ], [ -8365085.736197918653488, 4857174.210595241747797 ] ] ] } },
{ "type": "Feature", "properties": { "chip_id": "chip_000155" }, "geometry": { "type": "Polygon", "coordinates": [ [ [ -8364896.609797621145844, 4857174.210595241747797 ], [ -8364896.609797621145844, 4857552.463395836763084 ], [ -8365274.862598216161132, 4857552.463395836763084 ], [ -8365274.862598216161132, 4857174.210595241747797 ], [ -8364896.609797621145844, 4857174.210595241747797 ] ] ] } },
{ "type": "Feature", "properties": { "chip_id": "chip_000156" }, "geometry": { "type": "Polygon", "coordinates": [ [ [ -8364707.483397323638201, 4857174.210595241747797 ], [ -8364707.483397323638201, 4857552.463395836763084 ], [ -8365085.736197918653488, 4857552.463395836763084 ], [ -8365085.736197918653488, 4857174.210595241747797 ], [ -8364707.483397323638201, 4857174.210595241747797 ] ] ] } },
{ "type": "Feature", "properties": { "chip_id": "chip_000157" }, "geometry": { "type": "Polygon", "coordinates": [ [ [ -8364518.356997026130557, 4857174.210595241747797 ], [ -8364518.356997026130557, 4857552.463395836763084 ], [ -8364896.609797621145844, 4857552.463395836763084 ], [ -8364896.609797621145844, 4857174.210595241747797 ], [ -8364518.356997026130557, 4857174.210595241747797 ] ] ] } },
{ "type": "Feature", "properties": { "chip_id": "chip_000158" }, "geometry": { "type": "Polygon", "coordinates": [ [ [ -8364329.230596728622913, 4857174.210595241747797 ], [ -8364329.230596728622913, 4857552.463395836763084 ], [ -8364707.483397323638201, 4857552.463395836763084 ], [ -8364707.483397323638201, 4857174.210595241747797 ], [ -8364329.230596728622913, 4857174.210595241747797 ] ] ] } },
{ "type": "Feature", "properties": { "chip_id": "chip_000159" }, "geometry": { "type": "Polygon", "coordinates": [ [ [ -8366031.368199405260384, 4856985.084194944240153 ], [ -8366031.368199405260384, 4857363.33699553925544 ], [ -8366409.621000000275671, 4857363.33699553925544 ], [ -8366409.621000000275671, 4856985.084194944240153 ], [ -8366031.368199405260384, 4856985.084194944240153 ] ] ] } },
{ "type": "Feature", "properties": { "chip_id": "chip_000160" }, "geometry": { "type": "Polygon", "coordinates": [ [ [ -8365274.862598215229809, 4856985.084194944240153 ], [ -8365274.862598215229809, 4857363.33699553925544 ], [ -8365653.115398810245097, 4857363.33699553925544 ], [ -8365653.115398810245097, 4856985.084194944240153 ], [ -8365274.862598215229809, 4856985.084194944240153 ] ] ] } },
{ "type": "Feature", "properties": { "chip_id": "chip_000161" }, "geometry": { "type": "Polygon", "coordinates": [ [ [ -8365085.736197918653488, 4856985.084194944240153 ], [ -8365085.736197918653488, 4857363.33699553925544 ], [ -8365463.988998513668776, 4857363.33699553925544 ], [ -8365463.988998513668776, 4856985.084194944240153 ], [ -8365085.736197918653488, 4856985.084194944240153 ] ] ] } },
{ "type": "Feature", "properties": { "chip_id": "chip_000162" }, "geometry": { "type": "Polygon", "coordinates": [ [ [ -8364896.609797621145844, 4856985.084194944240153 ], [ -8364896.609797621145844, 4857363.33699553925544 ], [ -8365274.862598216161132, 4857363.33699553925544 ], [ -8365274.862598216161132, 4856985.084194944240153 ], [ -8364896.609797621145844, 4856985.084194944240153 ] ] ] } },
{ "type": "Feature", "properties": { "chip_id": "chip_000163" }, "geometry": { "type": "Polygon", "coordinates": [ [ [ -8364707.483397323638201, 4856985.084194944240153 ], [ -8364707.483397323638201, 4857363.33699553925544 ], [ -8365085.736197918653488, 4857363.33699553925544 ], [ -8365085.736197918653488, 4856985.084194944240153 ], [ -8364707.483397323638201, 4856985.084194944240153 ] ] ] } },
{ "type": "Feature", "properties": { "chip_id": "chip_000164" }, "geometry": { "type": "Polygon", "coordinates": [ [ [ -8364518.356997026130557, 4856985.084194944240153 ], [ -8364518.356997026130557, 4857363.33699553925544 ], [ -8364896.609797621145844, 4857363.33699553925544 ], [ -8364896.609797621145844, 4856985.084194944240153 ], [ -8364518.356997026130557, 4856985.084194944240153 ] ] ] } },
{ "type": "Feature", "properties": { "chip_id": "chip_000165" }, "geometry": { "type": "Polygon", "coordinates": [ [ [ -8364329.230596728622913, 4856985.084194944240153 ], [ -8364329.230596728622913, 4857363.33699553925544 ], [ -8364707.483397323638201, 4857363.33699553925544 ], [ -8364707.483397323638201, 4856985.084194944240153 ], [ -8364329.230596728622913, 4856985.084194944240153 ] ] ] } },
{ "type": "Feature", "properties": { "chip_id": "chip_000166" }, "geometry": { "type": "Polygon", "coordinates": [ [ [ -8365274.862598215229809, 4856795.957794646732509 ], [ -8365274.862598215229809, 4857174.210595241747797 ], [ -8365653.115398810245097, 4857174.210595241747797 ], [ -8365653.115398810245097, 4856795.957794646732509 ], [ -8365274.862598215229809, 4856795.957794646732509 ] ] ] } },
{ "type": "Feature", "properties": { "chip_id": "chip_000167" }, "geometry": { "type": "Polygon", "coordinates": [ [ [ -8365085.736197918653488, 4856795.957794646732509 ], [ -8365085.736197918653488, 4857174.210595241747797 ], [ -8365463.988998513668776, 4857174.210595241747797 ], [ -8365463.988998513668776, 4856795.957794646732509 ], [ -8365085.736197918653488, 4856795.957794646732509 ] ] ] } },
{ "type": "Feature", "properties": { "chip_id": "chip_000168" }, "geometry": { "type": "Polygon", "coordinates": [ [ [ -8364896.609797621145844, 4856795.957794646732509 ], [ -8364896.609797621145844, 4857174.210595241747797 ], [ -8365274.862598216161132, 4857174.210595241747797 ], [ -8365274.862598216161132, 4856795.957794646732509 ], [ -8364896.609797621145844, 4856795.957794646732509 ] ] ] } },
{ "type": "Feature", "properties": { "chip_id": "chip_000169" }, "geometry": { "type": "Polygon", "coordinates": [ [ [ -8364707.483397323638201, 4856795.957794646732509 ], [ -8364707.483397323638201, 4857174.210595241747797 ], [ -8365085.736197918653488, 4857174.210595241747797 ], [ -8365085.736197918653488, 4856795.957794646732509 ], [ -8364707.483397323638201, 4856795.957794646732509 ] ] ] } },
{ "type": "Feature", "properties": { "chip_id": "chip_000170" }, "geometry": { "type": "Polygon", "coordinates": [ [ [ -8364518.356997026130557, 4856795.957794646732509 ], [ -8364518.356997026130557, 4857174.210595241747797 ], [ -8364896.609797621145844, 4857174.210595241747797 ], [ -8364896.609797621145844, 4856795.957794646732509 ], [ -8364518.356997026130557, 4856795.957794646732509 ] ] ] } },
{ "type": "Feature", "properties": { "chip_id": "chip_000171" }, "geometry": { "type": "Polygon", "coordinates": [ [ [ -8364329.230596728622913, 4856795.957794646732509 ], [ -8364329.230596728622913, 4857174.210595241747797 ], [ -8364707.483397323638201, 4857174.210595241747797 ], [ -8364707.483397323638201, 4856795.957794646732509 ], [ -8364329.230596728622913, 4856795.957794646732509 ] ] ] } },
{ "type": "Feature", "properties": { "chip_id": "chip_000172" }, "geometry": { "type": "Polygon", "coordinates": [ [ [ -8365274.862598215229809, 4856606.831394349224865 ], [ -8365274.862598215229809, 4856985.084194944240153 ], [ -8365653.115398810245097, 4856985.084194944240153 ], [ -8365653.115398810245097, 4856606.831394349224865 ], [ -8365274.862598215229809, 4856606.831394349224865 ] ] ] } },
{ "type": "Feature", "properties": { "chip_id": "chip_000173" }, "geometry": { "type": "Polygon", "coordinates": [ [ [ -8365085.736197918653488, 4856606.831394349224865 ], [ -8365085.736197918653488, 4856985.084194944240153 ], [ -8365463.988998513668776, 4856985.084194944240153 ], [ -8365463.988998513668776, 4856606.831394349224865 ], [ -8365085.736197918653488, 4856606.831394349224865 ] ] ] } },
{ "type": "Feature", "properties": { "chip_id": "chip_000174" }, "geometry": { "type": "Polygon", "coordinates": [ [ [ -8364896.609797621145844, 4856606.831394349224865 ], [ -8364896.609797621145844, 4856985.084194944240153 ], [ -8365274.862598216161132, 4856985.084194944240153 ], [ -8365274.862598216161132, 4856606.831394349224865 ], [ -8364896.609797621145844, 4856606.831394349224865 ] ] ] } },
{ "type": "Feature", "properties": { "chip_id": "chip_000175" }, "geometry": { "type": "Polygon", "coordinates": [ [ [ -8364707.483397323638201, 4856606.831394349224865 ], [ -8364707.483397323638201, 4856985.084194944240153 ], [ -8365085.736197918653488, 4856985.084194944240153 ], [ -8365085.736197918653488, 4856606.831394349224865 ], [ -8364707.483397323638201, 4856606.831394349224865 ] ] ] } },
{ "type": "Feature", "properties": { "chip_id": "chip_000176" }, "geometry": { "type": "Polygon", "coordinates": [ [ [ -8364518.356997026130557, 4856606.831394349224865 ], [ -8364518.356997026130557, 4856985.084194944240153 ], [ -8364896.609797621145844, 4856985.084194944240153 ], [ -8364896.609797621145844, 4856606.831394349224865 ], [ -8364518.356997026130557, 4856606.831394349224865 ] ] ] } },
{ "type": "Feature", "properties": { "chip_id": "chip_000177" }, "geometry": { "type": "Polygon", "coordinates": [ [ [ -8364329.230596728622913, 4856606.831394349224865 ], [ -8364329.230596728622913, 4856985.084194944240153 ], [ -8364707.483397323638201, 4856985.084194944240153 ], [ -8364707.483397323638201, 4856606.831394349224865 ], [ -8364329.230596728622913, 4856606.831394349224865 ] ] ] } },
{ "type": "Feature", "properties": { "chip_id": "chip_000178" }, "geometry": { "type": "Polygon", "coordinates": [ [ [ -8365274.862598215229809, 4856417.704994051717222 ], [ -8365274.862598215229809, 4856795.957794646732509 ], [ -8365653.115398810245097, 4856795.957794646732509 ], [ -8365653.115398810245097, 4856417.704994051717222 ], [ -8365274.862598215229809, 4856417.704994051717222 ] ] ] } },
{ "type": "Feature", "properties": { "chip_id": "chip_000179" }, "geometry": { "type": "Polygon", "coordinates": [ [ [ -8365085.736197918653488, 4856417.704994051717222 ], [ -8365085.736197918653488, 4856795.957794646732509 ], [ -8365463.988998513668776, 4856795.957794646732509 ], [ -8365463.988998513668776, 4856417.704994051717222 ], [ -8365085.736197918653488, 4856417.704994051717222 ] ] ] } },
{ "type": "Feature", "properties": { "chip_id": "chip_000180" }, "geometry": { "type": "Polygon", "coordinates": [ [ [ -8364896.609797621145844, 4856417.704994051717222 ], [ -8364896.609797621145844, 4856795.957794646732509 ], [ -8365274.862598216161132, 4856795.957794646732509 ], [ -8365274.862598216161132, 4856417.704994051717222 ], [ -8364896.609797621145844, 4856417.704994051717222 ] ] ] } },
{ "type": "Feature", "properties": { "chip_id": "chip_000181" }, "geometry": { "type": "Polygon", "coordinates": [ [ [ -8364707.483397323638201, 4856417.704994051717222 ], [ -8364707.483397323638201, 4856795.957794646732509 ], [ -8365085.736197918653488, 4856795.957794646732509 ], [ -8365085.736197918653488, 4856417.704994051717222 ], [ -8364707.483397323638201, 4856417.704994051717222 ] ] ] } },
{ "type": "Feature", "properties": { "chip_id": "chip_000182" }, "geometry": { "type": "Polygon", "coordinates": [ [ [ -8364518.356997026130557, 4856417.704994051717222 ], [ -8364518.356997026130557, 4856795.957794646732509 ], [ -8364896.609797621145844, 4856795.957794646732509 ], [ -8364896.609797621145844, 4856417.704994051717222 ], [ -8364518.356997026130557, 4856417.704994051717222 ] ] ] } },
{ "type": "Feature", "properties": { "chip_id": "chip_000183" }, "geometry": { "type": "Polygon", "coordinates": [ [ [ -8364329.230596728622913, 4856417.704994051717222 ], [ -8364329.230596728622913, 4856795.957794646732509 ], [ -8364707.483397323638201, 4856795.957794646732509 ], [ -8364707.483397323638201, 4856417.704994051717222 ], [ -8364329.230596728622913, 4856417.704994051717222 ] ] ] } },
{ "type": "Feature", "properties": { "chip_id": "chip_000184" }, "geometry": { "type": "Polygon", "coordinates": [ [ [ -8365274.862598215229809, 4856228.578593754209578 ], [ -8365274.862598215229809, 4856606.831394349224865 ], [ -8365653.115398810245097, 4856606.831394349224865 ], [ -8365653.115398810245097, 4856228.578593754209578 ], [ -8365274.862598215229809, 4856228.578593754209578 ] ] ] } },
{ "type": "Feature", "properties": { "chip_id": "chip_000185" }, "geometry": { "type": "Polygon", "coordinates": [ [ [ -8365085.736197918653488, 4856228.578593754209578 ], [ -8365085.736197918653488, 4856606.831394349224865 ], [ -8365463.988998513668776, 4856606.831394349224865 ], [ -8365463.988998513668776, 4856228.578593754209578 ], [ -8365085.736197918653488, 4856228.578593754209578 ] ] ] } },
{ "type": "Feature", "properties": { "chip_id": "chip_000186" }, "geometry": { "type": "Polygon", "coordinates": [ [ [ -8364896.609797621145844, 4856228.578593754209578 ], [ -8364896.609797621145844, 4856606.831394349224865 ], [ -8365274.862598216161132, 4856606.831394349224865 ], [ -8365274.862598216161132, 4856228.578593754209578 ], [ -8364896.609797621145844, 4856228.578593754209578 ] ] ] } },
{ "type": "Feature", "properties": { "chip_id": "chip_000187" }, "geometry": { "type": "Polygon", "coordinates": [ [ [ -8364707.483397323638201, 4856228.578593754209578 ], [ -8364707.483397323638201, 4856606.831394349224865 ], [ -8365085.736197918653488, 4856606.831394349224865 ], [ -8365085.736197918653488, 4856228.578593754209578 ], [ -8364707.483397323638201, 4856228.578593754209578 ] ] ] } },
{ "type": "Feature", "properties": { "chip_id": "chip_000188" }, "geometry": { "type": "Polygon", "coordinates": [ [ [ -8364518.356997026130557, 4856228.578593754209578 ], [ -8364518.356997026130557, 4856606.831394349224865 ], [ -8364896.609797621145844, 4856606.831394349224865 ], [ -8364896.609797621145844, 4856228.578593754209578 ], [ -8364518.356997026130557, 4856228.578593754209578 ] ] ] } },
{ "type": "Feature", "properties": { "chip_id": "chip_000189" }, "geometry": { "type": "Polygon", "coordinates": [ [ [ -8364329.230596728622913, 4856228.578593754209578 ], [ -8364329.230596728622913, 4856606.831394349224865 ], [ -8364707.483397323638201, 4856606.831394349224865 ], [ -8364707.483397323638201, 4856228.578593754209578 ], [ -8364329.230596728622913, 4856228.578593754209578 ] ] ] } },
{ "type": "Feature", "properties": { "chip_id": "chip_000190" }, "geometry": { "type": "Polygon", "coordinates": [ [ [ -8365274.862598215229809, 4856039.452193456701934 ], [ -8365274.862598215229809, 4856417.704994051717222 ], [ -8365653.115398810245097, 4856417.704994051717222 ], [ -8365653.115398810245097, 4856039.452193456701934 ], [ -8365274.862598215229809, 4856039.452193456701934 ] ] ] } },
{ "type": "Feature", "properties": { "chip_id": "chip_000191" }, "geometry": { "type": "Polygon", "coordinates": [ [ [ -8365085.736197918653488, 4856039.452193456701934 ], [ -8365085.736197918653488, 4856417.704994051717222 ], [ -8365463.988998513668776, 4856417.704994051717222 ], [ -8365463.988998513668776, 4856039.452193456701934 ], [ -8365085.736197918653488, 4856039.452193456701934 ] ] ] } },
{ "type": "Feature", "properties": { "chip_id": "chip_000192" }, "geometry": { "type": "Polygon", "coordinates": [ [ [ -8364896.609797621145844, 4856039.452193456701934 ], [ -8364896.609797621145844, 4856417.704994051717222 ], [ -8365274.862598216161132, 4856417.704994051717222 ], [ -8365274.862598216161132, 4856039.452193456701934 ], [ -8364896.609797621145844, 4856039.452193456701934 ] ] ] } },
{ "type": "Feature", "properties": { "chip_id": "chip_000193" }, "geometry": { "type": "Polygon", "coordinates": [ [ [ -8364707.483397323638201, 4856039.452193456701934 ], [ -8364707.483397323638201, 4856417.704994051717222 ], [ -8365085.736197918653488, 4856417.704994051717222 ], [ -8365085.736197918653488, 4856039.452193456701934 ], [ -8364707.483397323638201, 4856039.452193456701934 ] ] ] } },
{ "type": "Feature", "properties": { "chip_id": "chip_000194" }, "geometry": { "type": "Polygon", "coordinates": [ [ [ -8364518.356997026130557, 4856039.452193456701934 ], [ -8364518.356997026130557, 4856417.704994051717222 ], [ -8364896.609797621145844, 4856417.704994051717222 ], [ -8364896.609797621145844, 4856039.452193456701934 ], [ -8364518.356997026130557, 4856039.452193456701934 ] ] ] } },
{ "type": "Feature", "properties": { "chip_id": "chip_000195" }, "geometry": { "type": "Polygon", "coordinates": [ [ [ -8364329.230596728622913, 4856039.452193456701934 ], [ -8364329.230596728622913, 4856417.704994051717222 ], [ -8364707.483397323638201, 4856417.704994051717222 ], [ -8364707.483397323638201, 4856039.452193456701934 ], [ -8364329.230596728622913, 4856039.452193456701934 ] ] ] } },
{ "type": "Feature", "properties": { "chip_id": "chip_000196" }, "geometry": { "type": "Polygon", "coordinates": [ [ [ -8365274.862598215229809, 4855850.325793160125613 ], [ -8365274.862598215229809, 4856228.578593755140901 ], [ -8365653.115398810245097, 4856228.578593755140901 ], [ -8365653.115398810245097, 4855850.325793160125613 ], [ -8365274.862598215229809, 4855850.325793160125613 ] ] ] } },
{ "type": "Feature", "properties": { "chip_id": "chip_000197" }, "geometry": { "type": "Polygon", "coordinates": [ [ [ -8365085.736197918653488, 4855850.325793160125613 ], [ -8365085.736197918653488, 4856228.578593755140901 ], [ -8365463.988998513668776, 4856228.578593755140901 ], [ -8365463.988998513668776, 4855850.325793160125613 ], [ -8365085.736197918653488, 4855850.325793160125613 ] ] ] } },
{ "type": "Feature", "properties": { "chip_id": "chip_000198" }, "geometry": { "type": "Polygon", "coordinates": [ [ [ -8364896.609797621145844, 4855850.325793160125613 ], [ -8364896.609797621145844, 4856228.578593755140901 ], [ -8365274.862598216161132, 4856228.578593755140901 ], [ -8365274.862598216161132, 4855850.325793160125613 ], [ -8364896.609797621145844, 4855850.325793160125613 ] ] ] } },
{ "type": "Feature", "properties": { "chip_id": "chip_000199" }, "geometry": { "type": "Polygon", "coordinates": [ [ [ -8364707.483397323638201, 4855850.325793160125613 ], [ -8364707.483397323638201, 4856228.578593755140901 ], [ -8365085.736197918653488, 4856228.578593755140901 ], [ -8365085.736197918653488, 4855850.325793160125613 ], [ -8364707.483397323638201, 4855850.325793160125613 ] ] ] } },
{ "type": "Feature", "properties": { "chip_id": "chip_000200" }, "geometry": { "type": "Polygon", "coordinates": [ [ [ -8364518.356997026130557, 4855850.325793160125613 ], [ -8364518.356997026130557, 4856228.578593755140901 ], [ -8364896.609797621145844, 4856228.578593755140901 ], [ -8364896.609797621145844, 4855850.325793160125613 ], [ -8364518.356997026130557, 4855850.325793160125613 ] ] ] } },
{ "type": "Feature", "properties": { "chip_id": "chip_000201" }, "geometry": { "type": "Polygon", "coordinates": [ [ [ -8364329.230596728622913, 4855850.325793160125613 ], [ -8364329.230596728622913, 4856228.578593755140901 ], [ -8364707.483397323638201, 4856228.578593755140901 ], [ -8364707.483397323638201, 4855850.325793160125613 ], [ -8364329.230596728622913, 4855850.325793160125613 ] ] ] } },
{ "type": "Feature", "properties": { "chip_id": "chip_000202" }, "geometry": { "type": "Polygon", "coordinates": [ [ [ -8365274.862598215229809, 4855661.19939286261797 ], [ -8365274.862598215229809, 4856039.452193457633257 ], [ -8365653.115398810245097, 4856039.452193457633257 ], [ -8365653.115398810245097, 4855661.19939286261797 ], [ -8365274.862598215229809, 4855661.19939286261797 ] ] ] } },
{ "type": "Feature", "properties": { "chip_id": "chip_000203" }, "geometry": { "type": "Polygon", "coordinates": [ [ [ -8365085.736197918653488, 4855661.19939286261797 ], [ -8365085.736197918653488, 4856039.452193457633257 ], [ -8365463.988998513668776, 4856039.452193457633257 ], [ -8365463.988998513668776, 4855661.19939286261797 ], [ -8365085.736197918653488, 4855661.19939286261797 ] ] ] } },
{ "type": "Feature", "properties": { "chip_id": "chip_000204" }, "geometry": { "type": "Polygon", "coordinates": [ [ [ -8364896.609797621145844, 4855661.19939286261797 ], [ -8364896.609797621145844, 4856039.452193457633257 ], [ -8365274.862598216161132, 4856039.452193457633257 ], [ -8365274.862598216161132, 4855661.19939286261797 ], [ -8364896.609797621145844, 4855661.19939286261797 ] ] ] } },
{ "type": "Feature", "properties": { "chip_id": "chip_000205" }, "geometry": { "type": "Polygon", "coordinates": [ [ [ -8364707.483397323638201, 4855661.19939286261797 ], [ -8364707.483397323638201, 4856039.452193457633257 ], [ -8365085.736197918653488, 4856039.452193457633257 ], [ -8365085.736197918653488, 4855661.19939286261797 ], [ -8364707.483397323638201, 4855661.19939286261797 ] ] ] } },
{ "type": "Feature", "properties": { "chip_id": "chip_000206" }, "geometry": { "type": "Polygon", "coordinates": [ [ [ -8364518.356997026130557, 4855661.19939286261797 ], [ -8364518.356997026130557, 4856039.452193457633257 ], [ -8364896.609797621145844, 4856039.452193457633257 ], [ -8364896.609797621145844, 4855661.19939286261797 ], [ -8364518.356997026130557, 4855661.19939286261797 ] ] ] } },
{ "type": "Feature", "properties": { "chip_id": "chip_000207" }, "geometry": { "type": "Polygon", "coordinates": [ [ [ -8364329.230596728622913, 4855661.19939286261797 ], [ -8364329.230596728622913, 4856039.452193457633257 ], [ -8364707.483397323638201, 4856039.452193457633257 ], [ -8364707.483397323638201, 4855661.19939286261797 ], [ -8364329.230596728622913, 4855661.19939286261797 ] ] ] } },
{ "type": "Feature", "properties": { "chip_id": "chip_000208" }, "geometry": { "type": "Polygon", "coordinates": [ [ [ -8365274.862598215229809, 4855472.072992565110326 ], [ -8365274.862598215229809, 4855850.325793160125613 ], [ -8365653.115398810245097, 4855850.325793160125613 ], [ -8365653.115398810245097, 4855472.072992565110326 ], [ -8365274.862598215229809, 4855472.072992565110326 ] ] ] } },
{ "type": "Feature", "properties": { "chip_id": "chip_000209" }, "geometry": { "type": "Polygon", "coordinates": [ [ [ -8365085.736197918653488, 4855472.072992565110326 ], [ -8365085.736197918653488, 4855850.325793160125613 ], [ -8365463.988998513668776, 4855850.325793160125613 ], [ -8365463.988998513668776, 4855472.072992565110326 ], [ -8365085.736197918653488, 4855472.072992565110326 ] ] ] } },
{ "type": "Feature", "properties": { "chip_id": "chip_000210" }, "geometry": { "type": "Polygon", "coordinates": [ [ [ -8364896.609797621145844, 4855472.072992565110326 ], [ -8364896.609797621145844, 4855850.325793160125613 ], [ -8365274.862598216161132, 4855850.325793160125613 ], [ -8365274.862598216161132, 4855472.072992565110326 ], [ -8364896.609797621145844, 4855472.072992565110326 ] ] ] } },
{ "type": "Feature", "properties": { "chip_id": "chip_000211" }, "geometry": { "type": "Polygon", "coordinates": [ [ [ -8364707.483397323638201, 4855472.072992565110326 ], [ -8364707.483397323638201, 4855850.325793160125613 ], [ -8365085.736197918653488, 4855850.325793160125613 ], [ -8365085.736197918653488, 4855472.072992565110326 ], [ -8364707.483397323638201, 4855472.072992565110326 ] ] ] } },
{ "type": "Feature", "properties": { "chip_id": "chip_000212" }, "geometry": { "type": "Polygon", "coordinates": [ [ [ -8364518.356997026130557, 4855472.072992565110326 ], [ -8364518.356997026130557, 4855850.325793160125613 ], [ -8364896.609797621145844, 4855850.325793160125613 ], [ -8364896.609797621145844, 4855472.072992565110326 ], [ -8364518.356997026130557, 4855472.072992565110326 ] ] ] } }
]
}
