{
"type": "FeatureCollection",
"name": "drawn_city",
"crs": { "type": "name", "properties": { "name": "urn:ogc:def:crs:EPSG::3857" } },
"features": [
{ "type": "Feature", "properties": { "name": "drawn_city" }, "geometry": { "type": "Polygon", "coordinates": [ [ [ -8366010.682499373331666, 4860082.028999813832343 ], [ -8364341.050996747799218, 4860141.130999906919897 ], [ -8364341.050996747799218, 4859786.518999349325895 ], [ -8364429.703996886499226, 4859313.702998605556786 ], [ -8364488.80599697958678, 4858870.437997909262776 ], [ -8364533.132497049868107, 4858545.376997398212552 ], [ -8364592.234497142955661, 4858190.764996840618551 ], [ -8364666.111997258849442, 4857865.703996328637004 ], [ -8364710.438497328199446, 4857599.744995910674334 ], [ -8364636.560997212305665, 4857363.33699553925544 ], [ -8364636.560997212305665, 4856801.867994655855 ], [ -8364666.111997258849442, 4856358.60299395956099 ], [ -8364710.438497328199446, 4855974.439993355423212 ], [ -8364754.764997398480773, 4855708.480992936529219 ], [ -8364872.968997583724558, 4855708.480992936529219 ], [ -8365434.437998467124999, 4855826.684993122704327 ], [ -8365242.356498165056109, 4857407.663495608605444 ], [ -8366409.621000000275671, 4857363.33699553925544 ], [ -8366409.621000000275671, 4858781.784997769631445 ], [ -8366010.682499373331666, 4860082.028999813832343 ] ] ] } }
]
}
